{
"type": "FeatureCollection",
"name": "schools",
"crs": { "type": "name", "properties": { "name": "urn:ogc:def:crs:OGC:1.3:CRS84" } },
"features": [
{ "type": "Feature", "properties": { "name": "17ο ΓΥΜΝΑΣΙΟ ΠΑΤΡΑΣ", "lat": 38.231813, "long": 21.750349, "edu_level": "2", "GEIT_ID": 35.0 }, "geometry": { "type": "Point", "coordinates": [ 21.753289, 38.233583 ] } },
{ "type": "Feature", "properties": { "name": "17ο ΓΥΜΝΑΣΙΟ ΠΑΤΡΑΣ", "lat": 38.231813, "long": 21.750349, "edu_level": "2", "GEIT_ID": 35.0 }, "geometry": { "type": "Point", "coordinates": [ 21.753289, 38.233583 ] } },
{ "type": "Feature", "properties": { "name": "21ο ΓΥΜΝΑΣΙΟ ΠΑΤΡΑΣ", "lat": 38.260709, "long": 21.746032, "edu_level": "2", "GEIT_ID": 9.0 }, "geometry": { "type": "Point", "coordinates": [ 21.748972, 38.262479 ] } },
{ "type": "Feature", "properties": { "name": "21ο ΓΥΜΝΑΣΙΟ ΠΑΤΡΑΣ", "lat": 38.260709, "long": 21.746032, "edu_level": "2", "GEIT_ID": 9.0 }, "geometry": { "type": "Point", "coordinates": [ 21.748972, 38.262479 ] } },
{ "type": "Feature", "properties": { "name": "20ο ΓΥΜΝΑΣΙΟ ΠΑΤΡΑΣ", "lat": 38.221588, "long": 21.761915, "edu_level": "2", "GEIT_ID": null }, "geometry": { "type": "Point", "coordinates": [ 21.764855, 38.223358 ] } },
{ "type": "Feature", "properties": { "name": "16ο ΓΥΜΝΑΣΙΟ ΠΑΤΡΑΣ", "lat": 38.273161, "long": 21.762157, "edu_level": "2", "GEIT_ID": 8.0 }, "geometry": { "type": "Point", "coordinates": [ 21.765097, 38.274931 ] } },
{ "type": "Feature", "properties": { "name": "16ο ΓΥΜΝΑΣΙΟ ΠΑΤΡΑΣ", "lat": 38.273161, "long": 21.762157, "edu_level": "2", "GEIT_ID": 8.0 }, "geometry": { "type": "Point", "coordinates": [ 21.765097, 38.274931 ] } },
{ "type": "Feature", "properties": { "name": "18ο ΓΥΜΝΑΣΙΟ ΠΑΤΡΑΣ", "lat": 38.224298, "long": 21.752168, "edu_level": "2", "GEIT_ID": 47.0 }, "geometry": { "type": "Point", "coordinates": [ 21.755108, 38.226068 ] } },
{ "type": "Feature", "properties": { "name": "18ο ΓΥΜΝΑΣΙΟ ΠΑΤΡΑΣ", "lat": 38.224298, "long": 21.752168, "edu_level": "2", "GEIT_ID": 47.0 }, "geometry": { "type": "Point", "coordinates": [ 21.755108, 38.226068 ] } },
{ "type": "Feature", "properties": { "name": "22ο ΓΥΜΝΑΣΙΟ ΠΑΤΡΑΣ", "lat": 38.225916, "long": 21.734605, "edu_level": "2", "GEIT_ID": 44.0 }, "geometry": { "type": "Point", "coordinates": [ 21.737545, 38.227686 ] } },
{ "type": "Feature", "properties": { "name": "22ο ΓΥΜΝΑΣΙΟ ΠΑΤΡΑΣ", "lat": 38.225916, "long": 21.734605, "edu_level": "2", "GEIT_ID": 44.0 }, "geometry": { "type": "Point", "coordinates": [ 21.737545, 38.227686 ] } },
{ "type": "Feature", "properties": { "name": "ΓΥΜΝΑΣΙΟ ΠΑΤΡΑΣ ΠΕΙΡΑΜΑΤΙΚΟ ΠΑΝΕΠΙΣΤΗΜΙΟΥ ΠΑΤΡΑΣ", "lat": 38.259725, "long": 21.752236, "edu_level": "2", "GEIT_ID": 16.0 }, "geometry": { "type": "Point", "coordinates": [ 21.755176, 38.261495 ] } },
{ "type": "Feature", "properties": { "name": "ΓΥΜΝΑΣΙΟ ΠΑΤΡΑΣ ΠΕΙΡΑΜΑΤΙΚΟ ΠΑΝΕΠΙΣΤΗΜΙΟΥ ΠΑΤΡΑΣ", "lat": 38.259725, "long": 21.752236, "edu_level": "2", "GEIT_ID": 16.0 }, "geometry": { "type": "Point", "coordinates": [ 21.755176, 38.261495 ] } },
{ "type": "Feature", "properties": { "name": "8ο ΓΥΜΝΑΣΙΟ ΠΑΤΡΑΣ", "lat": 38.230464, "long": 21.736666, "edu_level": "2", "GEIT_ID": 38.0 }, "geometry": { "type": "Point", "coordinates": [ 21.739606, 38.232234 ] } },
{ "type": "Feature", "properties": { "name": "8ο ΓΥΜΝΑΣΙΟ ΠΑΤΡΑΣ", "lat": 38.230464, "long": 21.736666, "edu_level": "2", "GEIT_ID": 38.0 }, "geometry": { "type": "Point", "coordinates": [ 21.739606, 38.232234 ] } },
{ "type": "Feature", "properties": { "name": "14ο ΓΥΜΝΑΣΙΟ ΠΑΤΡΑΣ", "lat": 38.250877, "long": 21.733635, "edu_level": "2", "GEIT_ID": null }, "geometry": { "type": "Point", "coordinates": [ 21.736575, 38.252647 ] } },
{ "type": "Feature", "properties": { "name": "6ο ΓΥΜΝΑΣΙΟ ΠΑΤΡΑΣ", "lat": 38.254426, "long": 21.737586, "edu_level": "2", "GEIT_ID": 20.0 }, "geometry": { "type": "Point", "coordinates": [ 21.740526, 38.256196 ] } },
{ "type": "Feature", "properties": { "name": "6ο ΓΥΜΝΑΣΙΟ ΠΑΤΡΑΣ", "lat": 38.254426, "long": 21.737586, "edu_level": "2", "GEIT_ID": 20.0 }, "geometry": { "type": "Point", "coordinates": [ 21.740526, 38.256196 ] } },
{ "type": "Feature", "properties": { "name": "7ο ΓΥΜΝΑΣΙΟ ΠΑΤΡΑΣ", "lat": 38.237003, "long": 21.731654, "edu_level": "2", "GEIT_ID": 30.0 }, "geometry": { "type": "Point", "coordinates": [ 21.734594, 38.238773 ] } },
{ "type": "Feature", "properties": { "name": "7ο ΓΥΜΝΑΣΙΟ ΠΑΤΡΑΣ", "lat": 38.237003, "long": 21.731654, "edu_level": "2", "GEIT_ID": 30.0 }, "geometry": { "type": "Point", "coordinates": [ 21.734594, 38.238773 ] } },
{ "type": "Feature", "properties": { "name": "ΓΥΜΝΑΣΙΟ ΠΑΤΡΑΣ ΕΣΠΕΡΙΝΟ", "lat": 38.246016, "long": 21.735016, "edu_level": "2", "GEIT_ID": 22.0 }, "geometry": { "type": "Point", "coordinates": [ 21.737956, 38.247786 ] } },
{ "type": "Feature", "properties": { "name": "ΓΥΜΝΑΣΙΟ ΠΑΤΡΑΣ ΕΣΠΕΡΙΝΟ", "lat": 38.246016, "long": 21.735016, "edu_level": "2", "GEIT_ID": 22.0 }, "geometry": { "type": "Point", "coordinates": [ 21.737956, 38.247786 ] } },
{ "type": "Feature", "properties": { "name": "1ο ΓΥΜΝΑΣΙΟ ΠΑΤΡΑΣ", "lat": 38.254548, "long": 21.737544, "edu_level": "2", "GEIT_ID": 20.0 }, "geometry": { "type": "Point", "coordinates": [ 21.740484, 38.256318 ] } },
{ "type": "Feature", "properties": { "name": "1ο ΓΥΜΝΑΣΙΟ ΠΑΤΡΑΣ", "lat": 38.254548, "long": 21.737544, "edu_level": "2", "GEIT_ID": 20.0 }, "geometry": { "type": "Point", "coordinates": [ 21.740484, 38.256318 ] } },
{ "type": "Feature", "properties": { "name": "19ο ΓΥΜΝΑΣΙΟ ΠΑΤΡΑΣ", "lat": 38.212496, "long": 21.719914, "edu_level": "2", "GEIT_ID": 55.0 }, "geometry": { "type": "Point", "coordinates": [ 21.722854, 38.214266 ] } },
{ "type": "Feature", "properties": { "name": "19ο ΓΥΜΝΑΣΙΟ ΠΑΤΡΑΣ", "lat": 38.212496, "long": 21.719914, "edu_level": "2", "GEIT_ID": 55.0 }, "geometry": { "type": "Point", "coordinates": [ 21.722854, 38.214266 ] } },
{ "type": "Feature", "properties": { "name": "5ο ΓΥΜΝΑΣΙΟ ΠΑΤΡΑΣ", "lat": 38.235282, "long": 21.743396, "edu_level": "2", "GEIT_ID": 37.0 }, "geometry": { "type": "Point", "coordinates": [ 21.746336, 38.237052 ] } },
{ "type": "Feature", "properties": { "name": "5ο ΓΥΜΝΑΣΙΟ ΠΑΤΡΑΣ", "lat": 38.235282, "long": 21.743396, "edu_level": "2", "GEIT_ID": 37.0 }, "geometry": { "type": "Point", "coordinates": [ 21.746336, 38.237052 ] } },
{ "type": "Feature", "properties": { "name": "13ο ΓΥΜΝΑΣΙΟ ΠΑΤΡΑΣ", "lat": 38.272891, "long": 21.753988, "edu_level": "2", "GEIT_ID": 7.0 }, "geometry": { "type": "Point", "coordinates": [ 21.756928, 38.274661 ] } },
{ "type": "Feature", "properties": { "name": "13ο ΓΥΜΝΑΣΙΟ ΠΑΤΡΑΣ", "lat": 38.272891, "long": 21.753988, "edu_level": "2", "GEIT_ID": 7.0 }, "geometry": { "type": "Point", "coordinates": [ 21.756928, 38.274661 ] } },
{ "type": "Feature", "properties": { "name": "15ο ΓΥΜΝΑΣΙΟ ΠΑΤΡΑΣ", "lat": 38.259639, "long": 21.752426, "edu_level": "2", "GEIT_ID": 16.0 }, "geometry": { "type": "Point", "coordinates": [ 21.755366, 38.261409 ] } },
{ "type": "Feature", "properties": { "name": "15ο ΓΥΜΝΑΣΙΟ ΠΑΤΡΑΣ", "lat": 38.259639, "long": 21.752426, "edu_level": "2", "GEIT_ID": 16.0 }, "geometry": { "type": "Point", "coordinates": [ 21.755366, 38.261409 ] } },
{ "type": "Feature", "properties": { "name": "3ο ΓΥΜΝΑΣΙΟ ΠΑΤΡΑΣ", "lat": 38.2365, "long": 21.731494, "edu_level": "2", "GEIT_ID": 30.0 }, "geometry": { "type": "Point", "coordinates": [ 21.734434, 38.23827 ] } },
{ "type": "Feature", "properties": { "name": "3ο ΓΥΜΝΑΣΙΟ ΠΑΤΡΑΣ", "lat": 38.2365, "long": 21.731494, "edu_level": "2", "GEIT_ID": 30.0 }, "geometry": { "type": "Point", "coordinates": [ 21.734434, 38.23827 ] } },
{ "type": "Feature", "properties": { "name": "11ο ΓΥΜΝΑΣΙΟ ΠΑΤΡΑΣ", "lat": 38.219379, "long": 21.739307, "edu_level": "2", "GEIT_ID": 48.0 }, "geometry": { "type": "Point", "coordinates": [ 21.742247, 38.221149 ] } },
{ "type": "Feature", "properties": { "name": "11ο ΓΥΜΝΑΣΙΟ ΠΑΤΡΑΣ", "lat": 38.219379, "long": 21.739307, "edu_level": "2", "GEIT_ID": 48.0 }, "geometry": { "type": "Point", "coordinates": [ 21.742247, 38.221149 ] } },
{ "type": "Feature", "properties": { "name": "9ο ΓΥΜΝΑΣΙΟ ΠΑΤΡΑΣ", "lat": 38.2464, "long": 21.734726, "edu_level": "2", "GEIT_ID": 22.0 }, "geometry": { "type": "Point", "coordinates": [ 21.737666, 38.24817 ] } },
{ "type": "Feature", "properties": { "name": "9ο ΓΥΜΝΑΣΙΟ ΠΑΤΡΑΣ", "lat": 38.2464, "long": 21.734726, "edu_level": "2", "GEIT_ID": 22.0 }, "geometry": { "type": "Point", "coordinates": [ 21.737666, 38.24817 ] } },
{ "type": "Feature", "properties": { "name": "ΓΥΜΝΑΣΙΟ ΠΑΤΡΑΣ ΜΟΥΣΙΚΟ", "lat": 38.220246, "long": 21.755973, "edu_level": "2", "GEIT_ID": 49.0 }, "geometry": { "type": "Point", "coordinates": [ 21.758913, 38.222016 ] } },
{ "type": "Feature", "properties": { "name": "ΓΥΜΝΑΣΙΟ ΠΑΤΡΑΣ ΜΟΥΣΙΚΟ", "lat": 38.220246, "long": 21.755973, "edu_level": "2", "GEIT_ID": 49.0 }, "geometry": { "type": "Point", "coordinates": [ 21.758913, 38.222016 ] } },
{ "type": "Feature", "properties": { "name": "2ο ΓΥΜΝΑΣΙΟ ΠΑΤΡΑΣ", "lat": 38.243316, "long": 21.729938, "edu_level": "2", "GEIT_ID": 22.0 }, "geometry": { "type": "Point", "coordinates": [ 21.732878, 38.245086 ] } },
{ "type": "Feature", "properties": { "name": "2ο ΓΥΜΝΑΣΙΟ ΠΑΤΡΑΣ", "lat": 38.243316, "long": 21.729938, "edu_level": "2", "GEIT_ID": 22.0 }, "geometry": { "type": "Point", "coordinates": [ 21.732878, 38.245086 ] } },
{ "type": "Feature", "properties": { "name": "ΓΥΜΝΑΣΙΟ ΠΑΤΡΑΣ ΑΘΛΗΤΙΚΟ", "lat": 38.222233, "long": 21.74762, "edu_level": "2", "GEIT_ID": 49.0 }, "geometry": { "type": "Point", "coordinates": [ 21.75056, 38.224003 ] } },
{ "type": "Feature", "properties": { "name": "ΓΥΜΝΑΣΙΟ ΠΑΤΡΑΣ ΑΘΛΗΤΙΚΟ", "lat": 38.222233, "long": 21.74762, "edu_level": "2", "GEIT_ID": 49.0 }, "geometry": { "type": "Point", "coordinates": [ 21.75056, 38.224003 ] } },
{ "type": "Feature", "properties": { "name": "10ο ΓΥΜΝΑΣΙΟ ΠΑΤΡΑΣ", "lat": 38.214403, "long": 21.73334, "edu_level": "2", "GEIT_ID": 53.0 }, "geometry": { "type": "Point", "coordinates": [ 21.73628, 38.216173 ] } },
{ "type": "Feature", "properties": { "name": "10ο ΓΥΜΝΑΣΙΟ ΠΑΤΡΑΣ", "lat": 38.214403, "long": 21.73334, "edu_level": "2", "GEIT_ID": 53.0 }, "geometry": { "type": "Point", "coordinates": [ 21.73628, 38.216173 ] } },
{ "type": "Feature", "properties": { "name": "ΓΥΜΝΑΣΙΟ ΔΕΜΕΝΙΚΩΝ ΑΧΑΙΑΣ", "lat": 38.208575, "long": 21.741581, "edu_level": "2", "GEIT_ID": 54.0 }, "geometry": { "type": "Point", "coordinates": [ 21.744521, 38.210345 ] } },
{ "type": "Feature", "properties": { "name": "ΓΥΜΝΑΣΙΟ ΔΕΜΕΝΙΚΩΝ ΑΧΑΙΑΣ", "lat": 38.208575, "long": 21.741581, "edu_level": "2", "GEIT_ID": 54.0 }, "geometry": { "type": "Point", "coordinates": [ 21.744521, 38.210345 ] } },
{ "type": "Feature", "properties": { "name": "ΓΥΜΝΑΣΙΟ ΠΑΤΡΑΣ ΠΕΙΡΑΜΑΤΙΚΟ", "lat": 38.228051, "long": 21.744272, "edu_level": "2", "GEIT_ID": 41.0 }, "geometry": { "type": "Point", "coordinates": [ 21.747212, 38.229821 ] } },
{ "type": "Feature", "properties": { "name": "ΓΥΜΝΑΣΙΟ ΠΑΤΡΑΣ ΠΕΙΡΑΜΑΤΙΚΟ", "lat": 38.228051, "long": 21.744272, "edu_level": "2", "GEIT_ID": 41.0 }, "geometry": { "type": "Point", "coordinates": [ 21.747212, 38.229821 ] } },
{ "type": "Feature", "properties": { "name": "12ο ΓΥΜΝΑΣΙΟ ΠΑΤΡΑΣ", "lat": 38.226153, "long": 21.734711, "edu_level": "2", "GEIT_ID": 44.0 }, "geometry": { "type": "Point", "coordinates": [ 21.737651, 38.227923 ] } },
{ "type": "Feature", "properties": { "name": "12ο ΓΥΜΝΑΣΙΟ ΠΑΤΡΑΣ", "lat": 38.226153, "long": 21.734711, "edu_level": "2", "GEIT_ID": 44.0 }, "geometry": { "type": "Point", "coordinates": [ 21.737651, 38.227923 ] } },
{ "type": "Feature", "properties": { "name": "4ο ΓΥΜΝΑΣΙΟ ΠΑΤΡΑΣ", "lat": 38.235384, "long": 21.743043, "edu_level": "2", "GEIT_ID": 37.0 }, "geometry": { "type": "Point", "coordinates": [ 21.745983, 38.237154 ] } },
{ "type": "Feature", "properties": { "name": "4ο ΓΥΜΝΑΣΙΟ ΠΑΤΡΑΣ", "lat": 38.235384, "long": 21.743043, "edu_level": "2", "GEIT_ID": 37.0 }, "geometry": { "type": "Point", "coordinates": [ 21.745983, 38.237154 ] } },
{ "type": "Feature", "properties": { "name": "18ο ΓΥΜΝΑΣΙΟ ΠΑΤΡΑΣ ΚΩΦΩΝ", "lat": 38.242604, "long": 21.742947, "edu_level": "2", "GEIT_ID": 28.0 }, "geometry": { "type": "Point", "coordinates": [ 21.745887, 38.244374 ] } },
{ "type": "Feature", "properties": { "name": "18ο ΓΥΜΝΑΣΙΟ ΠΑΤΡΑΣ ΚΩΦΩΝ", "lat": 38.242604, "long": 21.742947, "edu_level": "2", "GEIT_ID": 28.0 }, "geometry": { "type": "Point", "coordinates": [ 21.745887, 38.244374 ] } },
{ "type": "Feature", "properties": { "name": "ΕΝΙΑΙΟ ΛΥΚΕΙΟ ΠΑΤΡΑΣ ΕΣΠΕΡΙΝΟ", "lat": 38.2367, "long": 21.731972, "edu_level": "3", "GEIT_ID": 30.0 }, "geometry": { "type": "Point", "coordinates": [ 21.734912, 38.23847 ] } },
{ "type": "Feature", "properties": { "name": "ΕΝΙΑΙΟ ΛΥΚΕΙΟ ΠΑΤΡΑΣ ΕΣΠΕΡΙΝΟ", "lat": 38.2367, "long": 21.731972, "edu_level": "3", "GEIT_ID": 30.0 }, "geometry": { "type": "Point", "coordinates": [ 21.734912, 38.23847 ] } },
{ "type": "Feature", "properties": { "name": "10ο ΕΝΙΑΙΟ ΛΥΚΕΙΟ ΠΑΤΡΑΣ", "lat": 38.250877, "long": 21.733635, "edu_level": "3", "GEIT_ID": null }, "geometry": { "type": "Point", "coordinates": [ 21.736575, 38.252647 ] } },
{ "type": "Feature", "properties": { "name": "9ο ΕΝΙΑΙΟ ΛΥΚΕΙΟ ΠΑΤΡΑΣ", "lat": 38.272996, "long": 21.754089, "edu_level": "3", "GEIT_ID": 7.0 }, "geometry": { "type": "Point", "coordinates": [ 21.757029, 38.274766 ] } },
{ "type": "Feature", "properties": { "name": "9ο ΕΝΙΑΙΟ ΛΥΚΕΙΟ ΠΑΤΡΑΣ", "lat": 38.272996, "long": 21.754089, "edu_level": "3", "GEIT_ID": 7.0 }, "geometry": { "type": "Point", "coordinates": [ 21.757029, 38.274766 ] } },
{ "type": "Feature", "properties": { "name": "4ο ΕΝΙΑΙΟ ΛΥΚΕΙΟ ΠΑΤΡΑΣ", "lat": 38.241166, "long": 21.742789, "edu_level": "3", "GEIT_ID": 28.0 }, "geometry": { "type": "Point", "coordinates": [ 21.745729, 38.242936 ] } },
{ "type": "Feature", "properties": { "name": "4ο ΕΝΙΑΙΟ ΛΥΚΕΙΟ ΠΑΤΡΑΣ", "lat": 38.241166, "long": 21.742789, "edu_level": "3", "GEIT_ID": 28.0 }, "geometry": { "type": "Point", "coordinates": [ 21.745729, 38.242936 ] } },
{ "type": "Feature", "properties": { "name": "3ο ΕΝΙΑΙΟ ΛΥΚΕΙΟ ΠΑΤΡΑΣ", "lat": 38.229976, "long": 21.732039, "edu_level": "3", "GEIT_ID": 42.0 }, "geometry": { "type": "Point", "coordinates": [ 21.734979, 38.231746 ] } },
{ "type": "Feature", "properties": { "name": "3ο ΕΝΙΑΙΟ ΛΥΚΕΙΟ ΠΑΤΡΑΣ", "lat": 38.229976, "long": 21.732039, "edu_level": "3", "GEIT_ID": 42.0 }, "geometry": { "type": "Point", "coordinates": [ 21.734979, 38.231746 ] } },
{ "type": "Feature", "properties": { "name": "2ο ΕΝΙΑΙΟ ΛΥΚΕΙΟ ΠΑΤΡΑΣ", "lat": 38.227943, "long": 21.744296, "edu_level": "3", "GEIT_ID": 41.0 }, "geometry": { "type": "Point", "coordinates": [ 21.747236, 38.229713 ] } },
{ "type": "Feature", "properties": { "name": "2ο ΕΝΙΑΙΟ ΛΥΚΕΙΟ ΠΑΤΡΑΣ", "lat": 38.227943, "long": 21.744296, "edu_level": "3", "GEIT_ID": 41.0 }, "geometry": { "type": "Point", "coordinates": [ 21.747236, 38.229713 ] } },
{ "type": "Feature", "properties": { "name": "1ο ΕΝΙΑΙΟ ΛΥΚΕΙΟ ΠΑΤΡΑΣ", "lat": 38.259682, "long": 21.752326, "edu_level": "3", "GEIT_ID": 16.0 }, "geometry": { "type": "Point", "coordinates": [ 21.755266, 38.261452 ] } },
{ "type": "Feature", "properties": { "name": "1ο ΕΝΙΑΙΟ ΛΥΚΕΙΟ ΠΑΤΡΑΣ", "lat": 38.259682, "long": 21.752326, "edu_level": "3", "GEIT_ID": 16.0 }, "geometry": { "type": "Point", "coordinates": [ 21.755266, 38.261452 ] } },
{ "type": "Feature", "properties": { "name": "7ο ΕΝΙΑΙΟ ΛΥΚΕΙΟ ΠΑΤΡΑΣ", "lat": 38.225895, "long": 21.721803, "edu_level": "3", "GEIT_ID": 43.0 }, "geometry": { "type": "Point", "coordinates": [ 21.724743, 38.227665 ] } },
{ "type": "Feature", "properties": { "name": "7ο ΕΝΙΑΙΟ ΛΥΚΕΙΟ ΠΑΤΡΑΣ", "lat": 38.225895, "long": 21.721803, "edu_level": "3", "GEIT_ID": 43.0 }, "geometry": { "type": "Point", "coordinates": [ 21.724743, 38.227665 ] } },
{ "type": "Feature", "properties": { "name": "8ο ΕΝΙΑΙΟ ΛΥΚΕΙΟ ΠΑΤΡΑΣ", "lat": 38.21596, "long": 21.740156, "edu_level": "3", "GEIT_ID": 48.0 }, "geometry": { "type": "Point", "coordinates": [ 21.743096, 38.21773 ] } },
{ "type": "Feature", "properties": { "name": "8ο ΕΝΙΑΙΟ ΛΥΚΕΙΟ ΠΑΤΡΑΣ", "lat": 38.21596, "long": 21.740156, "edu_level": "3", "GEIT_ID": 48.0 }, "geometry": { "type": "Point", "coordinates": [ 21.743096, 38.21773 ] } },
{ "type": "Feature", "properties": { "name": "ΕΝΙΑΙΟ ΛΥΚΕΙΟ ΠΑΤΡΑΣ ΠΕΙΡΑΜΑΤΙΚΟ ΠΑΝΕΠΙΣΤΗΜΙΟΥ ΠΑΤΡΑΣ", "lat": 38.25976, "long": 21.752156, "edu_level": "3", "GEIT_ID": 16.0 }, "geometry": { "type": "Point", "coordinates": [ 21.755096, 38.26153 ] } },
{ "type": "Feature", "properties": { "name": "ΕΝΙΑΙΟ ΛΥΚΕΙΟ ΠΑΤΡΑΣ ΠΕΙΡΑΜΑΤΙΚΟ ΠΑΝΕΠΙΣΤΗΜΙΟΥ ΠΑΤΡΑΣ", "lat": 38.25976, "long": 21.752156, "edu_level": "3", "GEIT_ID": 16.0 }, "geometry": { "type": "Point", "coordinates": [ 21.755096, 38.26153 ] } },
{ "type": "Feature", "properties": { "name": "ΕΝΙΑΙΟ ΛΥΚΕΙΟ ΠΑΡΑΛΙΑΣ ΠΑΤΡΑΣ", "lat": 38.223562, "long": 21.719281, "edu_level": "3", "GEIT_ID": 43.0 }, "geometry": { "type": "Point", "coordinates": [ 21.722221, 38.225332 ] } },
{ "type": "Feature", "properties": { "name": "ΕΝΙΑΙΟ ΛΥΚΕΙΟ ΠΑΡΑΛΙΑΣ ΠΑΤΡΑΣ", "lat": 38.223562, "long": 21.719281, "edu_level": "3", "GEIT_ID": 43.0 }, "geometry": { "type": "Point", "coordinates": [ 21.722221, 38.225332 ] } },
{ "type": "Feature", "properties": { "name": "11ο ΕΝΙΑΙΟ ΛΥΚΕΙΟ ΠΑΤΡΑΣ", "lat": 38.250301, "long": 21.739475, "edu_level": "3", "GEIT_ID": 20.0 }, "geometry": { "type": "Point", "coordinates": [ 21.742415, 38.252071 ] } },
{ "type": "Feature", "properties": { "name": "11ο ΕΝΙΑΙΟ ΛΥΚΕΙΟ ΠΑΤΡΑΣ", "lat": 38.250301, "long": 21.739475, "edu_level": "3", "GEIT_ID": 20.0 }, "geometry": { "type": "Point", "coordinates": [ 21.742415, 38.252071 ] } },
{ "type": "Feature", "properties": { "name": "ΕΝΙΑΙΟ ΛΥΚΕΙΟ ΠΑΤΡΑΣ ΜΟΥΣΙΚΟ", "lat": 38.220257, "long": 21.755971, "edu_level": "3", "GEIT_ID": 49.0 }, "geometry": { "type": "Point", "coordinates": [ 21.758911, 38.222027 ] } },
{ "type": "Feature", "properties": { "name": "ΕΝΙΑΙΟ ΛΥΚΕΙΟ ΠΑΤΡΑΣ ΜΟΥΣΙΚΟ", "lat": 38.220257, "long": 21.755971, "edu_level": "3", "GEIT_ID": 49.0 }, "geometry": { "type": "Point", "coordinates": [ 21.758911, 38.222027 ] } },
{ "type": "Feature", "properties": { "name": "12ο ΕΝΙΑΙΟ ΛΥΚΕΙΟ ΠΑΤΡΑΣ", "lat": 38.221092, "long": 21.738701, "edu_level": "3", "GEIT_ID": 48.0 }, "geometry": { "type": "Point", "coordinates": [ 21.741641, 38.222862 ] } },
{ "type": "Feature", "properties": { "name": "12ο ΕΝΙΑΙΟ ΛΥΚΕΙΟ ΠΑΤΡΑΣ", "lat": 38.221092, "long": 21.738701, "edu_level": "3", "GEIT_ID": 48.0 }, "geometry": { "type": "Point", "coordinates": [ 21.741641, 38.222862 ] } },
{ "type": "Feature", "properties": { "name": "ΕΝΙΑΙΟ ΛΥΚΕΙΟ ΠΑΤΡΑΣ ΕΚΚΛΗΣΙΑΣΤΙΚΟ", "lat": 38.248338, "long": 21.737675, "edu_level": "3", "GEIT_ID": 22.0 }, "geometry": { "type": "Point", "coordinates": [ 21.740615, 38.250108 ] } },
{ "type": "Feature", "properties": { "name": "ΕΝΙΑΙΟ ΛΥΚΕΙΟ ΠΑΤΡΑΣ ΕΚΚΛΗΣΙΑΣΤΙΚΟ", "lat": 38.248338, "long": 21.737675, "edu_level": "3", "GEIT_ID": 22.0 }, "geometry": { "type": "Point", "coordinates": [ 21.740615, 38.250108 ] } },
{ "type": "Feature", "properties": { "name": "ΕΝΙΑΙΟ ΛΥΚΕΙΟ ΠΑΤΡΑΣ ΠΕΙΡΑΜΑΤΙΚΟ", "lat": 38.228176, "long": 21.744214, "edu_level": "3", "GEIT_ID": 41.0 }, "geometry": { "type": "Point", "coordinates": [ 21.747154, 38.229946 ] } },
{ "type": "Feature", "properties": { "name": "ΕΝΙΑΙΟ ΛΥΚΕΙΟ ΠΑΤΡΑΣ ΠΕΙΡΑΜΑΤΙΚΟ", "lat": 38.228176, "long": 21.744214, "edu_level": "3", "GEIT_ID": 41.0 }, "geometry": { "type": "Point", "coordinates": [ 21.747154, 38.229946 ] } },
{ "type": "Feature", "properties": { "name": "6ο ΕΝΙΑΙΟ ΛΥΚΕΙΟ ΠΑΤΡΑΣ \"ΑΝΔΡΕΑΣ ΠΑΠΑΝΔΡΕΟΥ\"", "lat": 38.250326, "long": 21.73936, "edu_level": "3", "GEIT_ID": 20.0 }, "geometry": { "type": "Point", "coordinates": [ 21.7423, 38.252096 ] } },
{ "type": "Feature", "properties": { "name": "6ο ΕΝΙΑΙΟ ΛΥΚΕΙΟ ΠΑΤΡΑΣ \"ΑΝΔΡΕΑΣ ΠΑΠΑΝΔΡΕΟΥ\"", "lat": 38.250326, "long": 21.73936, "edu_level": "3", "GEIT_ID": 20.0 }, "geometry": { "type": "Point", "coordinates": [ 21.7423, 38.252096 ] } },
{ "type": "Feature", "properties": { "name": "5ο ΕΝΙΑΙΟ ΛΥΚΕΙΟ ΠΑΤΡΑΣ ΕΤΑΔ", "lat": 38.228829, "long": 21.734806, "edu_level": "3", "GEIT_ID": 44.0 }, "geometry": { "type": "Point", "coordinates": [ 21.737746, 38.230599 ] } },
{ "type": "Feature", "properties": { "name": "5ο ΕΝΙΑΙΟ ΛΥΚΕΙΟ ΠΑΤΡΑΣ ΕΤΑΔ", "lat": 38.228829, "long": 21.734806, "edu_level": "3", "GEIT_ID": 44.0 }, "geometry": { "type": "Point", "coordinates": [ 21.737746, 38.230599 ] } },
{ "type": "Feature", "properties": { "name": "5ο ΕΝΙΑΙΟ ΛΥΚΕΙΟ ΠΑΤΡΑΣ - Τ.Α.Δ.", "lat": 38.222319, "long": 21.747592, "edu_level": "3", "GEIT_ID": 49.0 }, "geometry": { "type": "Point", "coordinates": [ 21.750532, 38.224089 ] } },
{ "type": "Feature", "properties": { "name": "5ο ΕΝΙΑΙΟ ΛΥΚΕΙΟ ΠΑΤΡΑΣ - Τ.Α.Δ.", "lat": 38.222319, "long": 21.747592, "edu_level": "3", "GEIT_ID": 49.0 }, "geometry": { "type": "Point", "coordinates": [ 21.750532, 38.224089 ] } },
{ "type": "Feature", "properties": { "name": "13ο ΕΝΙΑΙΟ ΛΥΚΕΙΟ ΠΑΤΡΑΣ", "lat": 38.246099, "long": 21.735132, "edu_level": "3", "GEIT_ID": 22.0 }, "geometry": { "type": "Point", "coordinates": [ 21.738072, 38.247869 ] } },
{ "type": "Feature", "properties": { "name": "13ο ΕΝΙΑΙΟ ΛΥΚΕΙΟ ΠΑΤΡΑΣ", "lat": 38.246099, "long": 21.735132, "edu_level": "3", "GEIT_ID": 22.0 }, "geometry": { "type": "Point", "coordinates": [ 21.738072, 38.247869 ] } },
{ "type": "Feature", "properties": { "name": "9ο ΤΕΕ ΠΑΤΡΑΣ ΕΣΠΕΡΙΝΟ", "lat": 38.237987, "long": 21.740335, "edu_level": null, "GEIT_ID": 29.0 }, "geometry": { "type": "Point", "coordinates": [ 21.743275, 38.239757 ] } },
{ "type": "Feature", "properties": { "name": "9ο ΤΕΕ ΠΑΤΡΑΣ ΕΣΠΕΡΙΝΟ", "lat": 38.237987, "long": 21.740335, "edu_level": null, "GEIT_ID": 29.0 }, "geometry": { "type": "Point", "coordinates": [ 21.743275, 38.239757 ] } },
{ "type": "Feature", "properties": { "name": "1ο ΤΕΕ ΠΑΤΡΑΣ", "lat": 38.222439, "long": 21.752177, "edu_level": null, "GEIT_ID": 47.0 }, "geometry": { "type": "Point", "coordinates": [ 21.755117, 38.224209 ] } },
{ "type": "Feature", "properties": { "name": "1ο ΤΕΕ ΠΑΤΡΑΣ", "lat": 38.222439, "long": 21.752177, "edu_level": null, "GEIT_ID": 47.0 }, "geometry": { "type": "Point", "coordinates": [ 21.755117, 38.224209 ] } },
{ "type": "Feature", "properties": { "name": "6ο ΤΕΕ ΠΑΤΡΑΣ", "lat": 38.215096, "long": 21.75036, "edu_level": null, "GEIT_ID": 49.0 }, "geometry": { "type": "Point", "coordinates": [ 21.7533, 38.216866 ] } },
{ "type": "Feature", "properties": { "name": "6ο ΤΕΕ ΠΑΤΡΑΣ", "lat": 38.215096, "long": 21.75036, "edu_level": null, "GEIT_ID": 49.0 }, "geometry": { "type": "Point", "coordinates": [ 21.7533, 38.216866 ] } },
{ "type": "Feature", "properties": { "name": "3ο ΤΕΕ ΠΑΤΡΑΣ ΕΣΠΕΡΙΝΟ", "lat": 38.229989, "long": 21.731965, "edu_level": null, "GEIT_ID": 42.0 }, "geometry": { "type": "Point", "coordinates": [ 21.734905, 38.231759 ] } },
{ "type": "Feature", "properties": { "name": "3ο ΤΕΕ ΠΑΤΡΑΣ ΕΣΠΕΡΙΝΟ", "lat": 38.229989, "long": 21.731965, "edu_level": null, "GEIT_ID": 42.0 }, "geometry": { "type": "Point", "coordinates": [ 21.734905, 38.231759 ] } },
{ "type": "Feature", "properties": { "name": "4ο ΤΕΕ ΠΑΤΡΑΣ", "lat": 38.273085, "long": 21.75416, "edu_level": null, "GEIT_ID": 7.0 }, "geometry": { "type": "Point", "coordinates": [ 21.7571, 38.274855 ] } },
{ "type": "Feature", "properties": { "name": "4ο ΤΕΕ ΠΑΤΡΑΣ", "lat": 38.273085, "long": 21.75416, "edu_level": null, "GEIT_ID": 7.0 }, "geometry": { "type": "Point", "coordinates": [ 21.7571, 38.274855 ] } },
{ "type": "Feature", "properties": { "name": "5ο ΤΕΕ ΠΑΤΡΑΣ ΕΣΠΕΡΙΝΟ", "lat": 38.248834, "long": 21.744438, "edu_level": null, "GEIT_ID": null }, "geometry": { "type": "Point", "coordinates": [ 21.747378, 38.250604 ] } },
{ "type": "Feature", "properties": { "name": "7ο ΤΕΕ ΠΑΤΡΑΣ", "lat": 38.221491, "long": 21.753175, "edu_level": null, "GEIT_ID": 45.0 }, "geometry": { "type": "Point", "coordinates": [ 21.756115, 38.223261 ] } },
{ "type": "Feature", "properties": { "name": "7ο ΤΕΕ ΠΑΤΡΑΣ", "lat": 38.221491, "long": 21.753175, "edu_level": null, "GEIT_ID": 45.0 }, "geometry": { "type": "Point", "coordinates": [ 21.756115, 38.223261 ] } },
{ "type": "Feature", "properties": { "name": "2ο ΤΕΕ ΠΑΤΡΑΣ", "lat": 38.222626, "long": 21.752115, "edu_level": null, "GEIT_ID": 47.0 }, "geometry": { "type": "Point", "coordinates": [ 21.755055, 38.224396 ] } },
{ "type": "Feature", "properties": { "name": "2ο ΤΕΕ ΠΑΤΡΑΣ", "lat": 38.222626, "long": 21.752115, "edu_level": null, "GEIT_ID": 47.0 }, "geometry": { "type": "Point", "coordinates": [ 21.755055, 38.224396 ] } },
{ "type": "Feature", "properties": { "name": "10ο ΤΕΕ ΠΑΤΡΑΣ", "lat": 38.253748, "long": 21.747153, "edu_level": null, "GEIT_ID": null }, "geometry": { "type": "Point", "coordinates": [ 21.750093, 38.255518 ] } },
{ "type": "Feature", "properties": { "name": "8ο ΤΕΕ ΠΑΤΡΑΣ", "lat": 38.23797, "long": 21.740335, "edu_level": null, "GEIT_ID": 29.0 }, "geometry": { "type": "Point", "coordinates": [ 21.743275, 38.23974 ] } },
{ "type": "Feature", "properties": { "name": "8ο ΤΕΕ ΠΑΤΡΑΣ", "lat": 38.23797, "long": 21.740335, "edu_level": null, "GEIT_ID": 29.0 }, "geometry": { "type": "Point", "coordinates": [ 21.743275, 38.23974 ] } },
{ "type": "Feature", "properties": { "name": "2ο ΣΕΚ ΠΑΤΡΑΣ", "lat": 38.251258, "long": 21.745326, "edu_level": null, "GEIT_ID": null }, "geometry": { "type": "Point", "coordinates": [ 21.748266, 38.253028 ] } },
{ "type": "Feature", "properties": { "name": "1ο ΣΕΚ ΑΧΑΙΑΣ (ΠΑΤΡΑΣ)", "lat": 38.22153, "long": 21.752395, "edu_level": null, "GEIT_ID": 47.0 }, "geometry": { "type": "Point", "coordinates": [ 21.755335, 38.2233 ] } },
{ "type": "Feature", "properties": { "name": "1ο ΣΕΚ ΑΧΑΙΑΣ (ΠΑΤΡΑΣ)", "lat": 38.22153, "long": 21.752395, "edu_level": null, "GEIT_ID": 47.0 }, "geometry": { "type": "Point", "coordinates": [ 21.755335, 38.2233 ] } },
{ "type": "Feature", "properties": { "name": "3ο ΣΕΚ ΠΑΤΡΑΣ", "lat": 38.273086, "long": 21.754148, "edu_level": null, "GEIT_ID": 7.0 }, "geometry": { "type": "Point", "coordinates": [ 21.757088, 38.274856 ] } },
{ "type": "Feature", "properties": { "name": "3ο ΣΕΚ ΠΑΤΡΑΣ", "lat": 38.273086, "long": 21.754148, "edu_level": null, "GEIT_ID": 7.0 }, "geometry": { "type": "Point", "coordinates": [ 21.757088, 38.274856 ] } },
{ "type": "Feature", "properties": { "name": "ΣΥΜΒΟΥΛΕΥΤΙΚΟΣ ΣΤΑΘΜΟΣ ΝΕΩΝ ΑΧΑΙΑΣ", "lat": 38.210899, "long": 21.729169, "edu_level": null, "GEIT_ID": 53.0 }, "geometry": { "type": "Point", "coordinates": [ 21.732109, 38.212669 ] } },
{ "type": "Feature", "properties": { "name": "ΣΥΜΒΟΥΛΕΥΤΙΚΟΣ ΣΤΑΘΜΟΣ ΝΕΩΝ ΑΧΑΙΑΣ", "lat": 38.210899, "long": 21.729169, "edu_level": null, "GEIT_ID": 53.0 }, "geometry": { "type": "Point", "coordinates": [ 21.732109, 38.212669 ] } },
{ "type": "Feature", "properties": { "name": "28ο ΔΗΜΟΤΙΚΟ ΣΧΟΛΕΙΟ ΠΑΤΡΑΣ", "lat": 38.23165, "long": 21.733267, "edu_level": "1", "GEIT_ID": 36.0 }, "geometry": { "type": "Point", "coordinates": [ 21.736207, 38.23342 ] } },
{ "type": "Feature", "properties": { "name": "28ο ΔΗΜΟΤΙΚΟ ΣΧΟΛΕΙΟ ΠΑΤΡΑΣ", "lat": 38.23165, "long": 21.733267, "edu_level": "1", "GEIT_ID": 36.0 }, "geometry": { "type": "Point", "coordinates": [ 21.736207, 38.23342 ] } },
{ "type": "Feature", "properties": { "name": "49ο ΔΗΜΟΤΙΚΟ ΣΧΟΛΕΙΟ ΠΑΤΡΑΣ", "lat": 38.276332, "long": 21.759714, "edu_level": "1", "GEIT_ID": 7.0 }, "geometry": { "type": "Point", "coordinates": [ 21.762654, 38.278102 ] } },
{ "type": "Feature", "properties": { "name": "49ο ΔΗΜΟΤΙΚΟ ΣΧΟΛΕΙΟ ΠΑΤΡΑΣ", "lat": 38.276332, "long": 21.759714, "edu_level": "1", "GEIT_ID": 7.0 }, "geometry": { "type": "Point", "coordinates": [ 21.762654, 38.278102 ] } },
{ "type": "Feature", "properties": { "name": "34ο ΔΗΜΟΤΙΚΟ ΣΧΟΛΕΙΟ ΠΑΤΡΑΣ", "lat": 38.259768, "long": 21.750352, "edu_level": "1", "GEIT_ID": 16.0 }, "geometry": { "type": "Point", "coordinates": [ 21.753292, 38.261538 ] } },
{ "type": "Feature", "properties": { "name": "34ο ΔΗΜΟΤΙΚΟ ΣΧΟΛΕΙΟ ΠΑΤΡΑΣ", "lat": 38.259768, "long": 21.750352, "edu_level": "1", "GEIT_ID": 16.0 }, "geometry": { "type": "Point", "coordinates": [ 21.753292, 38.261538 ] } },
{ "type": "Feature", "properties": { "name": "48ο ΔΗΜΟΤΙΚΟ ΣΧΟΛΕΙΟ ΠΑΤΡΑΣ", "lat": 38.26576, "long": 21.744278, "edu_level": "1", "GEIT_ID": 9.0 }, "geometry": { "type": "Point", "coordinates": [ 21.747218, 38.26753 ] } },
{ "type": "Feature", "properties": { "name": "48ο ΔΗΜΟΤΙΚΟ ΣΧΟΛΕΙΟ ΠΑΤΡΑΣ", "lat": 38.26576, "long": 21.744278, "edu_level": "1", "GEIT_ID": 9.0 }, "geometry": { "type": "Point", "coordinates": [ 21.747218, 38.26753 ] } },
{ "type": "Feature", "properties": { "name": "7ο ΔΗΜΟΤΙΚΟ ΣΧΟΛΕΙΟ ΠΑΤΡΑΣ", "lat": 38.24545, "long": 21.739024, "edu_level": "1", "GEIT_ID": 23.0 }, "geometry": { "type": "Point", "coordinates": [ 21.741964, 38.24722 ] } },
{ "type": "Feature", "properties": { "name": "7ο ΔΗΜΟΤΙΚΟ ΣΧΟΛΕΙΟ ΠΑΤΡΑΣ", "lat": 38.24545, "long": 21.739024, "edu_level": "1", "GEIT_ID": 23.0 }, "geometry": { "type": "Point", "coordinates": [ 21.741964, 38.24722 ] } },
{ "type": "Feature", "properties": { "name": "50ο ΔΗΜΟΤΙΚΟ ΣΧΟΛΕΙΟ ΠΑΤΡΑΣ", "lat": 38.266454, "long": 21.753472, "edu_level": "1", "GEIT_ID": 12.0 }, "geometry": { "type": "Point", "coordinates": [ 21.756412, 38.268224 ] } },
{ "type": "Feature", "properties": { "name": "50ο ΔΗΜΟΤΙΚΟ ΣΧΟΛΕΙΟ ΠΑΤΡΑΣ", "lat": 38.266454, "long": 21.753472, "edu_level": "1", "GEIT_ID": 12.0 }, "geometry": { "type": "Point", "coordinates": [ 21.756412, 38.268224 ] } },
{ "type": "Feature", "properties": { "name": "4ο ΔΗΜΟΤΙΚΟ ΣΧΟΛΕΙΟ ΠΑΤΡΑΣ", "lat": 38.239622, "long": 21.735481, "edu_level": "1", "GEIT_ID": 26.0 }, "geometry": { "type": "Point", "coordinates": [ 21.738421, 38.241392 ] } },
{ "type": "Feature", "properties": { "name": "4ο ΔΗΜΟΤΙΚΟ ΣΧΟΛΕΙΟ ΠΑΤΡΑΣ", "lat": 38.239622, "long": 21.735481, "edu_level": "1", "GEIT_ID": 26.0 }, "geometry": { "type": "Point", "coordinates": [ 21.738421, 38.241392 ] } },
{ "type": "Feature", "properties": { "name": "40ο ΔΗΜΟΤΙΚΟ ΣΧΟΛΕΙΟ ΠΑΤΡΑΣ", "lat": 38.278242, "long": 21.768965, "edu_level": "1", "GEIT_ID": 6.0 }, "geometry": { "type": "Point", "coordinates": [ 21.771905, 38.280012 ] } },
{ "type": "Feature", "properties": { "name": "40ο ΔΗΜΟΤΙΚΟ ΣΧΟΛΕΙΟ ΠΑΤΡΑΣ", "lat": 38.278242, "long": 21.768965, "edu_level": "1", "GEIT_ID": 6.0 }, "geometry": { "type": "Point", "coordinates": [ 21.771905, 38.280012 ] } },
{ "type": "Feature", "properties": { "name": "4ο ΔΗΜΟΤΙΚΟ ΣΧΟΛΕΙΟ ΠΑΤΡΑΣ ΕΙΔΙΚΟ", "lat": 38.235123, "long": 21.744243, "edu_level": "1", "GEIT_ID": 37.0 }, "geometry": { "type": "Point", "coordinates": [ 21.747183, 38.236893 ] } },
{ "type": "Feature", "properties": { "name": "4ο ΔΗΜΟΤΙΚΟ ΣΧΟΛΕΙΟ ΠΑΤΡΑΣ ΕΙΔΙΚΟ", "lat": 38.235123, "long": 21.744243, "edu_level": "1", "GEIT_ID": 37.0 }, "geometry": { "type": "Point", "coordinates": [ 21.747183, 38.236893 ] } },
{ "type": "Feature", "properties": { "name": "68ο ΔΗΜΟΤΙΚΟ ΣΧΟΛΕΙΟ ΠΑΤΡΑΣ", "lat": 38.221304, "long": 21.721589, "edu_level": "1", "GEIT_ID": 51.0 }, "geometry": { "type": "Point", "coordinates": [ 21.724529, 38.223074 ] } },
{ "type": "Feature", "properties": { "name": "68ο ΔΗΜΟΤΙΚΟ ΣΧΟΛΕΙΟ ΠΑΤΡΑΣ", "lat": 38.221304, "long": 21.721589, "edu_level": "1", "GEIT_ID": 51.0 }, "geometry": { "type": "Point", "coordinates": [ 21.724529, 38.223074 ] } },
{ "type": "Feature", "properties": { "name": "66ο ΔΗΜΟΤΙΚΟ ΣΧΟΛΕΙΟ ΠΑΤΡΑΣ", "lat": 38.256639, "long": 21.741721, "edu_level": "1", "GEIT_ID": 9.0 }, "geometry": { "type": "Point", "coordinates": [ 21.744661, 38.258409 ] } },
{ "type": "Feature", "properties": { "name": "66ο ΔΗΜΟΤΙΚΟ ΣΧΟΛΕΙΟ ΠΑΤΡΑΣ", "lat": 38.256639, "long": 21.741721, "edu_level": "1", "GEIT_ID": 9.0 }, "geometry": { "type": "Point", "coordinates": [ 21.744661, 38.258409 ] } },
{ "type": "Feature", "properties": { "name": "67ο ΔΗΜΟΤΙΚΟ ΣΧΟΛΕΙΟ ΠΑΤΡΑΣ", "lat": 38.219459, "long": 21.731701, "edu_level": "1", "GEIT_ID": 44.0 }, "geometry": { "type": "Point", "coordinates": [ 21.734641, 38.221229 ] } },
{ "type": "Feature", "properties": { "name": "67ο ΔΗΜΟΤΙΚΟ ΣΧΟΛΕΙΟ ΠΑΤΡΑΣ", "lat": 38.219459, "long": 21.731701, "edu_level": "1", "GEIT_ID": 44.0 }, "geometry": { "type": "Point", "coordinates": [ 21.734641, 38.221229 ] } },
{ "type": "Feature", "properties": { "name": "19ο ΔΗΜΟΤΙΚΟ ΣΧΟΛΕΙΟ ΠΑΤΡΑΣ", "lat": 38.23537, "long": 21.727432, "edu_level": "1", "GEIT_ID": 36.0 }, "geometry": { "type": "Point", "coordinates": [ 21.730372, 38.23714 ] } },
{ "type": "Feature", "properties": { "name": "19ο ΔΗΜΟΤΙΚΟ ΣΧΟΛΕΙΟ ΠΑΤΡΑΣ", "lat": 38.23537, "long": 21.727432, "edu_level": "1", "GEIT_ID": 36.0 }, "geometry": { "type": "Point", "coordinates": [ 21.730372, 38.23714 ] } },
{ "type": "Feature", "properties": { "name": "52ο ΔΗΜΟΤΙΚΟ ΣΧΟΛΕΙΟ ΠΑΤΡΑΣ", "lat": 38.21206, "long": 21.722684, "edu_level": "1", "GEIT_ID": 55.0 }, "geometry": { "type": "Point", "coordinates": [ 21.725624, 38.21383 ] } },
{ "type": "Feature", "properties": { "name": "52ο ΔΗΜΟΤΙΚΟ ΣΧΟΛΕΙΟ ΠΑΤΡΑΣ", "lat": 38.21206, "long": 21.722684, "edu_level": "1", "GEIT_ID": 55.0 }, "geometry": { "type": "Point", "coordinates": [ 21.725624, 38.21383 ] } },
{ "type": "Feature", "properties": { "name": "5ο ΔΗΜΟΤΙΚΟ ΣΧΟΛΕΙΟ ΠΑΤΡΑΣ", "lat": 38.236732, "long": 21.732491, "edu_level": "1", "GEIT_ID": 30.0 }, "geometry": { "type": "Point", "coordinates": [ 21.735431, 38.238502 ] } },
{ "type": "Feature", "properties": { "name": "5ο ΔΗΜΟΤΙΚΟ ΣΧΟΛΕΙΟ ΠΑΤΡΑΣ", "lat": 38.236732, "long": 21.732491, "edu_level": "1", "GEIT_ID": 30.0 }, "geometry": { "type": "Point", "coordinates": [ 21.735431, 38.238502 ] } },
{ "type": "Feature", "properties": { "name": "47ο ΔΗΜΟΤΙΚΟ ΣΧΟΛΕΙΟ ΠΑΤΡΑΣ", "lat": 38.217702, "long": 21.72539, "edu_level": "1", "GEIT_ID": 52.0 }, "geometry": { "type": "Point", "coordinates": [ 21.72833, 38.219472 ] } },
{ "type": "Feature", "properties": { "name": "47ο ΔΗΜΟΤΙΚΟ ΣΧΟΛΕΙΟ ΠΑΤΡΑΣ", "lat": 38.217702, "long": 21.72539, "edu_level": "1", "GEIT_ID": 52.0 }, "geometry": { "type": "Point", "coordinates": [ 21.72833, 38.219472 ] } },
{ "type": "Feature", "properties": { "name": "24ο ΔΗΜΟΤΙΚΟ ΣΧΟΛΕΙΟ ΠΑΤΡΑΣ", "lat": 38.219155, "long": 21.731493, "edu_level": "1", "GEIT_ID": 44.0 }, "geometry": { "type": "Point", "coordinates": [ 21.734433, 38.220925 ] } },
{ "type": "Feature", "properties": { "name": "24ο ΔΗΜΟΤΙΚΟ ΣΧΟΛΕΙΟ ΠΑΤΡΑΣ", "lat": 38.219155, "long": 21.731493, "edu_level": "1", "GEIT_ID": 44.0 }, "geometry": { "type": "Point", "coordinates": [ 21.734433, 38.220925 ] } },
{ "type": "Feature", "properties": { "name": "3ο ΔΗΜΟΤΙΚΟ ΣΧΟΛΕΙΟ ΠΑΤΡΑΣ", "lat": 38.241208, "long": 21.736772, "edu_level": "1", "GEIT_ID": 26.0 }, "geometry": { "type": "Point", "coordinates": [ 21.739712, 38.242978 ] } },
{ "type": "Feature", "properties": { "name": "3ο ΔΗΜΟΤΙΚΟ ΣΧΟΛΕΙΟ ΠΑΤΡΑΣ", "lat": 38.241208, "long": 21.736772, "edu_level": "1", "GEIT_ID": 26.0 }, "geometry": { "type": "Point", "coordinates": [ 21.739712, 38.242978 ] } },
{ "type": "Feature", "properties": { "name": "44ο ΔΗΜΟΤΙΚΟ ΣΧΟΛΕΙΟ ΠΑΤΡΑΣ", "lat": 38.221715, "long": 21.761349, "edu_level": "1", "GEIT_ID": null }, "geometry": { "type": "Point", "coordinates": [ 21.764289, 38.223485 ] } },
{ "type": "Feature", "properties": { "name": "41ο ΔΗΜΟΤΙΚΟ ΣΧΟΛΕΙΟ ΠΑΤΡΑΣ", "lat": 38.223815, "long": 21.757628, "edu_level": "1", "GEIT_ID": 45.0 }, "geometry": { "type": "Point", "coordinates": [ 21.760568, 38.225585 ] } },
{ "type": "Feature", "properties": { "name": "41ο ΔΗΜΟΤΙΚΟ ΣΧΟΛΕΙΟ ΠΑΤΡΑΣ", "lat": 38.223815, "long": 21.757628, "edu_level": "1", "GEIT_ID": 45.0 }, "geometry": { "type": "Point", "coordinates": [ 21.760568, 38.225585 ] } },
{ "type": "Feature", "properties": { "name": "21ο ΔΗΜΟΤΙΚΟ ΣΧΟΛΕΙΟ ΠΑΤΡΑΣ", "lat": 38.231356, "long": 21.750547, "edu_level": "1", "GEIT_ID": 35.0 }, "geometry": { "type": "Point", "coordinates": [ 21.753487, 38.233126 ] } },
{ "type": "Feature", "properties": { "name": "21ο ΔΗΜΟΤΙΚΟ ΣΧΟΛΕΙΟ ΠΑΤΡΑΣ", "lat": 38.231356, "long": 21.750547, "edu_level": "1", "GEIT_ID": 35.0 }, "geometry": { "type": "Point", "coordinates": [ 21.753487, 38.233126 ] } },
{ "type": "Feature", "properties": { "name": "33ο ΔΗΜΟΤΙΚΟ ΣΧΟΛΕΙΟ ΠΑΤΡΑΣ", "lat": 38.22039, "long": 21.740405, "edu_level": "1", "GEIT_ID": 48.0 }, "geometry": { "type": "Point", "coordinates": [ 21.743345, 38.22216 ] } },
{ "type": "Feature", "properties": { "name": "33ο ΔΗΜΟΤΙΚΟ ΣΧΟΛΕΙΟ ΠΑΤΡΑΣ", "lat": 38.22039, "long": 21.740405, "edu_level": "1", "GEIT_ID": 48.0 }, "geometry": { "type": "Point", "coordinates": [ 21.743345, 38.22216 ] } },
{ "type": "Feature", "properties": { "name": "29ο ΔΗΜΟΤΙΚΟ ΣΧΟΛΕΙΟ ΠΑΤΡΑΣ", "lat": 38.227946, "long": 21.729258, "edu_level": "1", "GEIT_ID": 42.0 }, "geometry": { "type": "Point", "coordinates": [ 21.732198, 38.229716 ] } },
{ "type": "Feature", "properties": { "name": "29ο ΔΗΜΟΤΙΚΟ ΣΧΟΛΕΙΟ ΠΑΤΡΑΣ", "lat": 38.227946, "long": 21.729258, "edu_level": "1", "GEIT_ID": 42.0 }, "geometry": { "type": "Point", "coordinates": [ 21.732198, 38.229716 ] } },
{ "type": "Feature", "properties": { "name": "20ο ΔΗΜΟΤΙΚΟ ΣΧΟΛΕΙΟ ΠΑΤΡΑΣ", "lat": 38.243138, "long": 21.742604, "edu_level": "1", "GEIT_ID": null }, "geometry": { "type": "Point", "coordinates": [ 21.745544, 38.244908 ] } },
{ "type": "Feature", "properties": { "name": "53ο ΔΗΜΟΤΙΚΟ ΣΧΟΛΕΙΟ ΠΑΤΡΑΣ", "lat": 38.22655, "long": 21.733001, "edu_level": "1", "GEIT_ID": 44.0 }, "geometry": { "type": "Point", "coordinates": [ 21.735941, 38.22832 ] } },
{ "type": "Feature", "properties": { "name": "53ο ΔΗΜΟΤΙΚΟ ΣΧΟΛΕΙΟ ΠΑΤΡΑΣ", "lat": 38.22655, "long": 21.733001, "edu_level": "1", "GEIT_ID": 44.0 }, "geometry": { "type": "Point", "coordinates": [ 21.735941, 38.22832 ] } },
{ "type": "Feature", "properties": { "name": "45ο ΔΗΜΟΤΙΚΟ ΣΧΟΛΕΙΟ ΠΑΤΡΑΣ", "lat": 38.211427, "long": 21.748898, "edu_level": "1", "GEIT_ID": 49.0 }, "geometry": { "type": "Point", "coordinates": [ 21.751838, 38.213197 ] } },
{ "type": "Feature", "properties": { "name": "45ο ΔΗΜΟΤΙΚΟ ΣΧΟΛΕΙΟ ΠΑΤΡΑΣ", "lat": 38.211427, "long": 21.748898, "edu_level": "1", "GEIT_ID": 49.0 }, "geometry": { "type": "Point", "coordinates": [ 21.751838, 38.213197 ] } },
{ "type": "Feature", "properties": { "name": "54ο ΔΗΜΟΤΙΚΟ ΣΧΟΛΕΙΟ ΠΑΤΡΑΣ", "lat": 38.226539, "long": 21.733001, "edu_level": "1", "GEIT_ID": 44.0 }, "geometry": { "type": "Point", "coordinates": [ 21.735941, 38.228309 ] } },
{ "type": "Feature", "properties": { "name": "54ο ΔΗΜΟΤΙΚΟ ΣΧΟΛΕΙΟ ΠΑΤΡΑΣ", "lat": 38.226539, "long": 21.733001, "edu_level": "1", "GEIT_ID": 44.0 }, "geometry": { "type": "Point", "coordinates": [ 21.735941, 38.228309 ] } },
{ "type": "Feature", "properties": { "name": "38ο ΔΗΜΟΤΙΚΟ ΣΧΟΛΕΙΟ ΠΑΤΡΑΣ", "lat": 38.235384, "long": 21.727163, "edu_level": "1", "GEIT_ID": 36.0 }, "geometry": { "type": "Point", "coordinates": [ 21.730103, 38.237154 ] } },
{ "type": "Feature", "properties": { "name": "38ο ΔΗΜΟΤΙΚΟ ΣΧΟΛΕΙΟ ΠΑΤΡΑΣ", "lat": 38.235384, "long": 21.727163, "edu_level": "1", "GEIT_ID": 36.0 }, "geometry": { "type": "Point", "coordinates": [ 21.730103, 38.237154 ] } },
{ "type": "Feature", "properties": { "name": "17ο ΔΗΜΟΤΙΚΟ ΣΧΟΛΕΙΟ ΠΑΤΡΑΣ", "lat": 38.233499, "long": 21.742911, "edu_level": "1", "GEIT_ID": 39.0 }, "geometry": { "type": "Point", "coordinates": [ 21.745851, 38.235269 ] } },
{ "type": "Feature", "properties": { "name": "17ο ΔΗΜΟΤΙΚΟ ΣΧΟΛΕΙΟ ΠΑΤΡΑΣ", "lat": 38.233499, "long": 21.742911, "edu_level": "1", "GEIT_ID": 39.0 }, "geometry": { "type": "Point", "coordinates": [ 21.745851, 38.235269 ] } },
{ "type": "Feature", "properties": { "name": "25ο ΔΗΜΟΤΙΚΟ ΣΧΟΛΕΙΟ ΠΑΤΡΑΣ", "lat": 38.235171, "long": 21.744242, "edu_level": "1", "GEIT_ID": 37.0 }, "geometry": { "type": "Point", "coordinates": [ 21.747182, 38.236941 ] } },
{ "type": "Feature", "properties": { "name": "25ο ΔΗΜΟΤΙΚΟ ΣΧΟΛΕΙΟ ΠΑΤΡΑΣ", "lat": 38.235171, "long": 21.744242, "edu_level": "1", "GEIT_ID": 37.0 }, "geometry": { "type": "Point", "coordinates": [ 21.747182, 38.236941 ] } },
{ "type": "Feature", "properties": { "name": "46ο ΔΗΜΟΤΙΚΟ ΣΧΟΛΕΙΟ ΠΑΤΡΑΣ", "lat": 38.23076, "long": 21.759302, "edu_level": "1", "GEIT_ID": 40.0 }, "geometry": { "type": "Point", "coordinates": [ 21.762242, 38.23253 ] } },
{ "type": "Feature", "properties": { "name": "46ο ΔΗΜΟΤΙΚΟ ΣΧΟΛΕΙΟ ΠΑΤΡΑΣ", "lat": 38.23076, "long": 21.759302, "edu_level": "1", "GEIT_ID": 40.0 }, "geometry": { "type": "Point", "coordinates": [ 21.762242, 38.23253 ] } },
{ "type": "Feature", "properties": { "name": "8ο ΔΗΜΟΤΙΚΟ ΣΧΟΛΕΙΟ ΠΑΤΡΑΣ", "lat": 38.237879, "long": 21.740507, "edu_level": "1", "GEIT_ID": 29.0 }, "geometry": { "type": "Point", "coordinates": [ 21.743447, 38.239649 ] } },
{ "type": "Feature", "properties": { "name": "8ο ΔΗΜΟΤΙΚΟ ΣΧΟΛΕΙΟ ΠΑΤΡΑΣ", "lat": 38.237879, "long": 21.740507, "edu_level": "1", "GEIT_ID": 29.0 }, "geometry": { "type": "Point", "coordinates": [ 21.743447, 38.239649 ] } },
{ "type": "Feature", "properties": { "name": "61ο ΔΗΜΟΤΙΚΟ ΣΧΟΛΕΙΟ ΠΑΤΡΑΣ", "lat": 38.216252, "long": 21.733401, "edu_level": "1", "GEIT_ID": 53.0 }, "geometry": { "type": "Point", "coordinates": [ 21.736341, 38.218022 ] } },
{ "type": "Feature", "properties": { "name": "61ο ΔΗΜΟΤΙΚΟ ΣΧΟΛΕΙΟ ΠΑΤΡΑΣ", "lat": 38.216252, "long": 21.733401, "edu_level": "1", "GEIT_ID": 53.0 }, "geometry": { "type": "Point", "coordinates": [ 21.736341, 38.218022 ] } },
{ "type": "Feature", "properties": { "name": "32ο ΔΗΜΟΤΙΚΟ ΣΧΟΛΕΙΟ ΠΑΤΡΑΣ", "lat": 38.220328, "long": 21.740402, "edu_level": "1", "GEIT_ID": 48.0 }, "geometry": { "type": "Point", "coordinates": [ 21.743342, 38.222098 ] } },
{ "type": "Feature", "properties": { "name": "32ο ΔΗΜΟΤΙΚΟ ΣΧΟΛΕΙΟ ΠΑΤΡΑΣ", "lat": 38.220328, "long": 21.740402, "edu_level": "1", "GEIT_ID": 48.0 }, "geometry": { "type": "Point", "coordinates": [ 21.743342, 38.222098 ] } },
{ "type": "Feature", "properties": { "name": "2ο ΔΗΜΟΤΙΚΟ ΣΧΟΛΕΙΟ ΠΑΤΡΑΣ ΕΙΔΙΚΟ", "lat": 38.218544, "long": 21.74428, "edu_level": "1", "GEIT_ID": 49.0 }, "geometry": { "type": "Point", "coordinates": [ 21.74722, 38.220314 ] } },
{ "type": "Feature", "properties": { "name": "2ο ΔΗΜΟΤΙΚΟ ΣΧΟΛΕΙΟ ΠΑΤΡΑΣ ΕΙΔΙΚΟ", "lat": 38.218544, "long": 21.74428, "edu_level": "1", "GEIT_ID": 49.0 }, "geometry": { "type": "Point", "coordinates": [ 21.74722, 38.220314 ] } },
{ "type": "Feature", "properties": { "name": "60ο ΔΗΜΟΤΙΚΟ ΣΧΟΛΕΙΟ ΠΑΤΡΑΣ", "lat": 38.22032, "long": 21.736347, "edu_level": "1", "GEIT_ID": 44.0 }, "geometry": { "type": "Point", "coordinates": [ 21.739287, 38.22209 ] } },
{ "type": "Feature", "properties": { "name": "60ο ΔΗΜΟΤΙΚΟ ΣΧΟΛΕΙΟ ΠΑΤΡΑΣ", "lat": 38.22032, "long": 21.736347, "edu_level": "1", "GEIT_ID": 44.0 }, "geometry": { "type": "Point", "coordinates": [ 21.739287, 38.22209 ] } },
{ "type": "Feature", "properties": { "name": "26ο ΔΗΜΟΤΙΚΟ ΣΧΟΛΕΙΟ ΠΑΤΡΑΣ", "lat": 38.254929, "long": 21.739052, "edu_level": "1", "GEIT_ID": 20.0 }, "geometry": { "type": "Point", "coordinates": [ 21.741992, 38.256699 ] } },
{ "type": "Feature", "properties": { "name": "26ο ΔΗΜΟΤΙΚΟ ΣΧΟΛΕΙΟ ΠΑΤΡΑΣ", "lat": 38.254929, "long": 21.739052, "edu_level": "1", "GEIT_ID": 20.0 }, "geometry": { "type": "Point", "coordinates": [ 21.741992, 38.256699 ] } },
{ "type": "Feature", "properties": { "name": "9ο ΔΗΜΟΤΙΚΟ ΣΧΟΛΕΙΟ ΠΑΤΡΑΣ", "lat": 38.237879, "long": 21.740507, "edu_level": "1", "GEIT_ID": 29.0 }, "geometry": { "type": "Point", "coordinates": [ 21.743447, 38.239649 ] } },
{ "type": "Feature", "properties": { "name": "9ο ΔΗΜΟΤΙΚΟ ΣΧΟΛΕΙΟ ΠΑΤΡΑΣ", "lat": 38.237879, "long": 21.740507, "edu_level": "1", "GEIT_ID": 29.0 }, "geometry": { "type": "Point", "coordinates": [ 21.743447, 38.239649 ] } },
{ "type": "Feature", "properties": { "name": "35ο ΔΗΜΟΤΙΚΟ ΣΧΟΛΕΙΟ ΠΑΤΡΑΣ", "lat": 38.262163, "long": 21.743192, "edu_level": "1", "GEIT_ID": 9.0 }, "geometry": { "type": "Point", "coordinates": [ 21.746132, 38.263933 ] } },
{ "type": "Feature", "properties": { "name": "35ο ΔΗΜΟΤΙΚΟ ΣΧΟΛΕΙΟ ΠΑΤΡΑΣ", "lat": 38.262163, "long": 21.743192, "edu_level": "1", "GEIT_ID": 9.0 }, "geometry": { "type": "Point", "coordinates": [ 21.746132, 38.263933 ] } },
{ "type": "Feature", "properties": { "name": "23ο ΔΗΜΟΤΙΚΟ ΣΧΟΛΕΙΟ ΠΑΤΡΑΣ", "lat": 38.256256, "long": 21.746173, "edu_level": "1", "GEIT_ID": 19.0 }, "geometry": { "type": "Point", "coordinates": [ 21.749113, 38.258026 ] } },
{ "type": "Feature", "properties": { "name": "23ο ΔΗΜΟΤΙΚΟ ΣΧΟΛΕΙΟ ΠΑΤΡΑΣ", "lat": 38.256256, "long": 21.746173, "edu_level": "1", "GEIT_ID": 19.0 }, "geometry": { "type": "Point", "coordinates": [ 21.749113, 38.258026 ] } },
{ "type": "Feature", "properties": { "name": "11ο ΔΗΜΟΤΙΚΟ ΣΧΟΛΕΙΟ ΠΑΤΡΑΣ", "lat": 38.248448, "long": 21.735188, "edu_level": "1", "GEIT_ID": 22.0 }, "geometry": { "type": "Point", "coordinates": [ 21.738128, 38.250218 ] } },
{ "type": "Feature", "properties": { "name": "11ο ΔΗΜΟΤΙΚΟ ΣΧΟΛΕΙΟ ΠΑΤΡΑΣ", "lat": 38.248448, "long": 21.735188, "edu_level": "1", "GEIT_ID": 22.0 }, "geometry": { "type": "Point", "coordinates": [ 21.738128, 38.250218 ] } },
{ "type": "Feature", "properties": { "name": "42ο ΔΗΜΟΤΙΚΟ ΣΧΟΛΕΙΟ ΠΑΤΡΑΣ", "lat": 38.229615, "long": 21.749318, "edu_level": "1", "GEIT_ID": 37.0 }, "geometry": { "type": "Point", "coordinates": [ 21.752258, 38.231385 ] } },
{ "type": "Feature", "properties": { "name": "42ο ΔΗΜΟΤΙΚΟ ΣΧΟΛΕΙΟ ΠΑΤΡΑΣ", "lat": 38.229615, "long": 21.749318, "edu_level": "1", "GEIT_ID": 37.0 }, "geometry": { "type": "Point", "coordinates": [ 21.752258, 38.231385 ] } },
{ "type": "Feature", "properties": { "name": "15ο ΔΗΜΟΤΙΚΟ ΣΧΟΛΕΙΟ ΠΑΤΡΑΣ", "lat": 38.232638, "long": 21.743159, "edu_level": "1", "GEIT_ID": 39.0 }, "geometry": { "type": "Point", "coordinates": [ 21.746099, 38.234408 ] } },
{ "type": "Feature", "properties": { "name": "15ο ΔΗΜΟΤΙΚΟ ΣΧΟΛΕΙΟ ΠΑΤΡΑΣ", "lat": 38.232638, "long": 21.743159, "edu_level": "1", "GEIT_ID": 39.0 }, "geometry": { "type": "Point", "coordinates": [ 21.746099, 38.234408 ] } },
{ "type": "Feature", "properties": { "name": "13ο ΔΗΜΟΤΙΚΟ ΣΧΟΛΕΙΟ ΠΑΤΡΑΣ", "lat": 38.23165, "long": 21.733267, "edu_level": "1", "GEIT_ID": 36.0 }, "geometry": { "type": "Point", "coordinates": [ 21.736207, 38.23342 ] } },
{ "type": "Feature", "properties": { "name": "13ο ΔΗΜΟΤΙΚΟ ΣΧΟΛΕΙΟ ΠΑΤΡΑΣ", "lat": 38.23165, "long": 21.733267, "edu_level": "1", "GEIT_ID": 36.0 }, "geometry": { "type": "Point", "coordinates": [ 21.736207, 38.23342 ] } },
{ "type": "Feature", "properties": { "name": "1ο ΔΗΜΟΤΙΚΟ ΣΧΟΛΕΙΟ ΠΑΤΡΑΣ", "lat": 38.242277, "long": 21.742229, "edu_level": "1", "GEIT_ID": 28.0 }, "geometry": { "type": "Point", "coordinates": [ 21.745169, 38.244047 ] } },
{ "type": "Feature", "properties": { "name": "1ο ΔΗΜΟΤΙΚΟ ΣΧΟΛΕΙΟ ΠΑΤΡΑΣ", "lat": 38.242277, "long": 21.742229, "edu_level": "1", "GEIT_ID": 28.0 }, "geometry": { "type": "Point", "coordinates": [ 21.745169, 38.244047 ] } },
{ "type": "Feature", "properties": { "name": "55ο ΔΗΜΟΤΙΚΟ ΣΧΟΛΕΙΟ ΠΑΤΡΑΣ", "lat": 38.228008, "long": 21.741233, "edu_level": "1", "GEIT_ID": 41.0 }, "geometry": { "type": "Point", "coordinates": [ 21.744173, 38.229778 ] } },
{ "type": "Feature", "properties": { "name": "55ο ΔΗΜΟΤΙΚΟ ΣΧΟΛΕΙΟ ΠΑΤΡΑΣ", "lat": 38.228008, "long": 21.741233, "edu_level": "1", "GEIT_ID": 41.0 }, "geometry": { "type": "Point", "coordinates": [ 21.744173, 38.229778 ] } },
{ "type": "Feature", "properties": { "name": "43ο ΔΗΜΟΤΙΚΟ ΣΧΟΛΕΙΟ ΠΑΤΡΑΣ", "lat": 38.264635, "long": 21.763767, "edu_level": "1", "GEIT_ID": 15.0 }, "geometry": { "type": "Point", "coordinates": [ 21.766707, 38.266405 ] } },
{ "type": "Feature", "properties": { "name": "43ο ΔΗΜΟΤΙΚΟ ΣΧΟΛΕΙΟ ΠΑΤΡΑΣ", "lat": 38.264635, "long": 21.763767, "edu_level": "1", "GEIT_ID": 15.0 }, "geometry": { "type": "Point", "coordinates": [ 21.766707, 38.266405 ] } },
{ "type": "Feature", "properties": { "name": "6ο ΔΗΜΟΤΙΚΟ ΣΧΟΛΕΙΟ ΠΑΤΡΑΣ", "lat": 38.235172, "long": 21.727446, "edu_level": "1", "GEIT_ID": 36.0 }, "geometry": { "type": "Point", "coordinates": [ 21.730386, 38.236942 ] } },
{ "type": "Feature", "properties": { "name": "6ο ΔΗΜΟΤΙΚΟ ΣΧΟΛΕΙΟ ΠΑΤΡΑΣ", "lat": 38.235172, "long": 21.727446, "edu_level": "1", "GEIT_ID": 36.0 }, "geometry": { "type": "Point", "coordinates": [ 21.730386, 38.236942 ] } },
{ "type": "Feature", "properties": { "name": "2ο ΔΗΜΟΤΙΚΟ ΣΧΟΛΕΙΟ ΠΑΤΡΑΣ", "lat": 38.247508, "long": 21.735295, "edu_level": "1", "GEIT_ID": 22.0 }, "geometry": { "type": "Point", "coordinates": [ 21.738235, 38.249278 ] } },
{ "type": "Feature", "properties": { "name": "2ο ΔΗΜΟΤΙΚΟ ΣΧΟΛΕΙΟ ΠΑΤΡΑΣ", "lat": 38.247508, "long": 21.735295, "edu_level": "1", "GEIT_ID": 22.0 }, "geometry": { "type": "Point", "coordinates": [ 21.738235, 38.249278 ] } },
{ "type": "Feature", "properties": { "name": "16ο ΔΗΜΟΤΙΚΟ ΣΧΟΛΕΙΟ ΠΑΤΡΑΣ", "lat": 38.26644, "long": 21.746538, "edu_level": "1", "GEIT_ID": 9.0 }, "geometry": { "type": "Point", "coordinates": [ 21.749478, 38.26821 ] } },
{ "type": "Feature", "properties": { "name": "16ο ΔΗΜΟΤΙΚΟ ΣΧΟΛΕΙΟ ΠΑΤΡΑΣ", "lat": 38.26644, "long": 21.746538, "edu_level": "1", "GEIT_ID": 9.0 }, "geometry": { "type": "Point", "coordinates": [ 21.749478, 38.26821 ] } },
{ "type": "Feature", "properties": { "name": "57ο ΔΗΜΟΤΙΚΟ ΣΧΟΛΕΙΟ ΠΑΤΡΑΣ", "lat": 38.248781, "long": 21.744605, "edu_level": "1", "GEIT_ID": null }, "geometry": { "type": "Point", "coordinates": [ 21.747545, 38.250551 ] } },
{ "type": "Feature", "properties": { "name": "1ο ΔΗΜΟΤΙΚΟ ΣΧΟΛΕΙΟ ΠΑΤΡΑΣ ΕΙΔΙΚΟ", "lat": 38.270717, "long": 21.75731, "edu_level": "1", "GEIT_ID": 11.0 }, "geometry": { "type": "Point", "coordinates": [ 21.76025, 38.272487 ] } },
{ "type": "Feature", "properties": { "name": "1ο ΔΗΜΟΤΙΚΟ ΣΧΟΛΕΙΟ ΠΑΤΡΑΣ ΕΙΔΙΚΟ", "lat": 38.270717, "long": 21.75731, "edu_level": "1", "GEIT_ID": 11.0 }, "geometry": { "type": "Point", "coordinates": [ 21.76025, 38.272487 ] } },
{ "type": "Feature", "properties": { "name": "64ο ΔΗΜΟΤΙΚΟ ΣΧΟΛΕΙΟ ΠΑΤΡΑΣ", "lat": 38.264112, "long": 21.739624, "edu_level": "1", "GEIT_ID": 9.0 }, "geometry": { "type": "Point", "coordinates": [ 21.742564, 38.265882 ] } },
{ "type": "Feature", "properties": { "name": "64ο ΔΗΜΟΤΙΚΟ ΣΧΟΛΕΙΟ ΠΑΤΡΑΣ", "lat": 38.264112, "long": 21.739624, "edu_level": "1", "GEIT_ID": 9.0 }, "geometry": { "type": "Point", "coordinates": [ 21.742564, 38.265882 ] } },
{ "type": "Feature", "properties": { "name": "58ο ΔΗΜΟΤΙΚΟ ΣΧΟΛΕΙΟ ΠΑΤΡΑΣ", "lat": 38.256716, "long": 21.741766, "edu_level": "1", "GEIT_ID": 9.0 }, "geometry": { "type": "Point", "coordinates": [ 21.744706, 38.258486 ] } },
{ "type": "Feature", "properties": { "name": "58ο ΔΗΜΟΤΙΚΟ ΣΧΟΛΕΙΟ ΠΑΤΡΑΣ", "lat": 38.256716, "long": 21.741766, "edu_level": "1", "GEIT_ID": 9.0 }, "geometry": { "type": "Point", "coordinates": [ 21.744706, 38.258486 ] } },
{ "type": "Feature", "properties": { "name": "14ο ΔΗΜΟΤΙΚΟ ΣΧΟΛΕΙΟ ΠΑΤΡΑΣ", "lat": 38.213542, "long": 21.715476, "edu_level": "1", "GEIT_ID": null }, "geometry": { "type": "Point", "coordinates": [ 21.718416, 38.215312 ] } },
{ "type": "Feature", "properties": { "name": "27ο ΔΗΜΟΤΙΚΟ ΣΧΟΛΕΙΟ ΠΑΤΡΑΣ", "lat": 38.236524, "long": 21.73253, "edu_level": "1", "GEIT_ID": 30.0 }, "geometry": { "type": "Point", "coordinates": [ 21.73547, 38.238294 ] } },
{ "type": "Feature", "properties": { "name": "27ο ΔΗΜΟΤΙΚΟ ΣΧΟΛΕΙΟ ΠΑΤΡΑΣ", "lat": 38.236524, "long": 21.73253, "edu_level": "1", "GEIT_ID": 30.0 }, "geometry": { "type": "Point", "coordinates": [ 21.73547, 38.238294 ] } },
{ "type": "Feature", "properties": { "name": "12ο ΔΗΜΟΤΙΚΟ ΣΧΟΛΕΙΟ ΠΑΤΡΑΣ", "lat": 38.236618, "long": 21.732506, "edu_level": "1", "GEIT_ID": 30.0 }, "geometry": { "type": "Point", "coordinates": [ 21.735446, 38.238388 ] } },
{ "type": "Feature", "properties": { "name": "12ο ΔΗΜΟΤΙΚΟ ΣΧΟΛΕΙΟ ΠΑΤΡΑΣ", "lat": 38.236618, "long": 21.732506, "edu_level": "1", "GEIT_ID": 30.0 }, "geometry": { "type": "Point", "coordinates": [ 21.735446, 38.238388 ] } },
{ "type": "Feature", "properties": { "name": "10ο ΔΗΜΟΤΙΚΟ ΣΧΟΛΕΙΟ ΠΑΤΡΑΣ", "lat": 38.241068, "long": 21.728838, "edu_level": "1", "GEIT_ID": 27.0 }, "geometry": { "type": "Point", "coordinates": [ 21.731778, 38.242838 ] } },
{ "type": "Feature", "properties": { "name": "10ο ΔΗΜΟΤΙΚΟ ΣΧΟΛΕΙΟ ΠΑΤΡΑΣ", "lat": 38.241068, "long": 21.728838, "edu_level": "1", "GEIT_ID": 27.0 }, "geometry": { "type": "Point", "coordinates": [ 21.731778, 38.242838 ] } },
{ "type": "Feature", "properties": { "name": "37ο ΔΗΜΟΤΙΚΟ ΣΧΟΛΕΙΟ ΠΑΤΡΑΣ", "lat": 38.235172, "long": 21.727145, "edu_level": "1", "GEIT_ID": 36.0 }, "geometry": { "type": "Point", "coordinates": [ 21.730085, 38.236942 ] } },
{ "type": "Feature", "properties": { "name": "37ο ΔΗΜΟΤΙΚΟ ΣΧΟΛΕΙΟ ΠΑΤΡΑΣ", "lat": 38.235172, "long": 21.727145, "edu_level": "1", "GEIT_ID": 36.0 }, "geometry": { "type": "Point", "coordinates": [ 21.730085, 38.236942 ] } },
{ "type": "Feature", "properties": { "name": "18ο ΔΗΜΟΤΙΚΟ ΣΧΟΛΕΙΟ ΠΑΤΡΑΣ", "lat": 38.2142, "long": 21.725918, "edu_level": "1", "GEIT_ID": 52.0 }, "geometry": { "type": "Point", "coordinates": [ 21.728858, 38.21597 ] } },
{ "type": "Feature", "properties": { "name": "18ο ΔΗΜΟΤΙΚΟ ΣΧΟΛΕΙΟ ΠΑΤΡΑΣ", "lat": 38.2142, "long": 21.725918, "edu_level": "1", "GEIT_ID": 52.0 }, "geometry": { "type": "Point", "coordinates": [ 21.728858, 38.21597 ] } },
{ "type": "Feature", "properties": { "name": "62ο ΔΗΜΟΤΙΚΟ ΣΧΟΛΕΙΟ ΠΑΤΡΑΣ", "lat": 38.280077, "long": 21.763497, "edu_level": "1", "GEIT_ID": 4.0 }, "geometry": { "type": "Point", "coordinates": [ 21.766437, 38.281847 ] } },
{ "type": "Feature", "properties": { "name": "62ο ΔΗΜΟΤΙΚΟ ΣΧΟΛΕΙΟ ΠΑΤΡΑΣ", "lat": 38.280077, "long": 21.763497, "edu_level": "1", "GEIT_ID": 4.0 }, "geometry": { "type": "Point", "coordinates": [ 21.766437, 38.281847 ] } },
{ "type": "Feature", "properties": { "name": "56ο ΔΗΜΟΤΙΚΟ ΣΧΟΛΕΙΟ ΠΑΤΡΑΣ", "lat": 38.256551, "long": 21.741682, "edu_level": "1", "GEIT_ID": 9.0 }, "geometry": { "type": "Point", "coordinates": [ 21.744622, 38.258321 ] } },
{ "type": "Feature", "properties": { "name": "56ο ΔΗΜΟΤΙΚΟ ΣΧΟΛΕΙΟ ΠΑΤΡΑΣ", "lat": 38.256551, "long": 21.741682, "edu_level": "1", "GEIT_ID": 9.0 }, "geometry": { "type": "Point", "coordinates": [ 21.744622, 38.258321 ] } },
{ "type": "Feature", "properties": { "name": "31ο ΔΗΜΟΤΙΚΟ ΣΧΟΛΕΙΟ ΠΑΤΡΑΣ", "lat": 38.254754, "long": 21.739186, "edu_level": "1", "GEIT_ID": 20.0 }, "geometry": { "type": "Point", "coordinates": [ 21.742126, 38.256524 ] } },
{ "type": "Feature", "properties": { "name": "31ο ΔΗΜΟΤΙΚΟ ΣΧΟΛΕΙΟ ΠΑΤΡΑΣ", "lat": 38.254754, "long": 21.739186, "edu_level": "1", "GEIT_ID": 20.0 }, "geometry": { "type": "Point", "coordinates": [ 21.742126, 38.256524 ] } },
{ "type": "Feature", "properties": { "name": "ΔΙΕΥΘΥΝΣΗ Δ.Ε. ΑΧΑΪΑΣ", "lat": 38.244056, "long": 21.732646, "edu_level": null, "GEIT_ID": 22.0 }, "geometry": { "type": "Point", "coordinates": [ 21.735586, 38.245826 ] } },
{ "type": "Feature", "properties": { "name": "ΔΙΕΥΘΥΝΣΗ Δ.Ε. ΑΧΑΪΑΣ", "lat": 38.244056, "long": 21.732646, "edu_level": null, "GEIT_ID": 22.0 }, "geometry": { "type": "Point", "coordinates": [ 21.735586, 38.245826 ] } },
{ "type": "Feature", "properties": { "name": "1ο ΕΡΓΑΣΤΗΡΙΑΚΟ ΚΕΝΤΡΟ ΦΥΣΙΚΩΝ ΕΠΙΣΤΗΜΩΝ ΑΧΑΙΑΣ (ΠΑΤΡΑ)", "lat": 38.271914, "long": 21.753555, "edu_level": null, "GEIT_ID": 9.0 }, "geometry": { "type": "Point", "coordinates": [ 21.756495, 38.273684 ] } },
{ "type": "Feature", "properties": { "name": "1ο ΕΡΓΑΣΤΗΡΙΑΚΟ ΚΕΝΤΡΟ ΦΥΣΙΚΩΝ ΕΠΙΣΤΗΜΩΝ ΑΧΑΙΑΣ (ΠΑΤΡΑ)", "lat": 38.271914, "long": 21.753555, "edu_level": null, "GEIT_ID": 9.0 }, "geometry": { "type": "Point", "coordinates": [ 21.756495, 38.273684 ] } },
{ "type": "Feature", "properties": { "name": "ΚΕΣΥΠ ΑΧΑΪΑΣ - 1", "lat": 38.243934, "long": 21.733142, "edu_level": null, "GEIT_ID": 22.0 }, "geometry": { "type": "Point", "coordinates": [ 21.736082, 38.245704 ] } },
{ "type": "Feature", "properties": { "name": "ΚΕΣΥΠ ΑΧΑΪΑΣ - 1", "lat": 38.243934, "long": 21.733142, "edu_level": null, "GEIT_ID": 22.0 }, "geometry": { "type": "Point", "coordinates": [ 21.736082, 38.245704 ] } },
{ "type": "Feature", "properties": { "name": "3ο ΓΡΑΦΕΙΟ Δ.Ε. ΑΧΑΪΑΣ", "lat": 38.246224, "long": 21.736229, "edu_level": null, "GEIT_ID": 22.0 }, "geometry": { "type": "Point", "coordinates": [ 21.739169, 38.247994 ] } },
{ "type": "Feature", "properties": { "name": "3ο ΓΡΑΦΕΙΟ Δ.Ε. ΑΧΑΪΑΣ", "lat": 38.246224, "long": 21.736229, "edu_level": null, "GEIT_ID": 22.0 }, "geometry": { "type": "Point", "coordinates": [ 21.739169, 38.247994 ] } },
{ "type": "Feature", "properties": { "name": "1ο ΓΡΑΦΕΙΟ Δ.Ε. ΑΧΑΪΑΣ", "lat": 38.240451, "long": 21.730518, "edu_level": null, "GEIT_ID": 30.0 }, "geometry": { "type": "Point", "coordinates": [ 21.733458, 38.242221 ] } },
{ "type": "Feature", "properties": { "name": "1ο ΓΡΑΦΕΙΟ Δ.Ε. ΑΧΑΪΑΣ", "lat": 38.240451, "long": 21.730518, "edu_level": null, "GEIT_ID": 30.0 }, "geometry": { "type": "Point", "coordinates": [ 21.733458, 38.242221 ] } },
{ "type": "Feature", "properties": { "name": "ΓΡΑΦΕΙΟ ΤΕΕ ΑΧΑΪΑΣ", "lat": 38.240495, "long": 21.730479, "edu_level": null, "GEIT_ID": 30.0 }, "geometry": { "type": "Point", "coordinates": [ 21.733419, 38.242265 ] } },
{ "type": "Feature", "properties": { "name": "ΓΡΑΦΕΙΟ ΤΕΕ ΑΧΑΪΑΣ", "lat": 38.240495, "long": 21.730479, "edu_level": null, "GEIT_ID": 30.0 }, "geometry": { "type": "Point", "coordinates": [ 21.733419, 38.242265 ] } },
{ "type": "Feature", "properties": { "name": "44ο ΝΗΠΙΑΓΩΓΕΙΟ ΠΑΤΡΑΣ", "lat": 38.23527, "long": 21.727241, "edu_level": "0", "GEIT_ID": 36.0 }, "geometry": { "type": "Point", "coordinates": [ 21.730181, 38.23704 ] } },
{ "type": "Feature", "properties": { "name": "44ο ΝΗΠΙΑΓΩΓΕΙΟ ΠΑΤΡΑΣ", "lat": 38.23527, "long": 21.727241, "edu_level": "0", "GEIT_ID": 36.0 }, "geometry": { "type": "Point", "coordinates": [ 21.730181, 38.23704 ] } },
{ "type": "Feature", "properties": { "name": "52ο ΝΗΠΙΑΓΩΓΕΙΟ ΠΑΤΡΑΣ", "lat": 38.216079, "long": 21.734186, "edu_level": "0", "GEIT_ID": 53.0 }, "geometry": { "type": "Point", "coordinates": [ 21.737126, 38.217849 ] } },
{ "type": "Feature", "properties": { "name": "52ο ΝΗΠΙΑΓΩΓΕΙΟ ΠΑΤΡΑΣ", "lat": 38.216079, "long": 21.734186, "edu_level": "0", "GEIT_ID": 53.0 }, "geometry": { "type": "Point", "coordinates": [ 21.737126, 38.217849 ] } },
{ "type": "Feature", "properties": { "name": "41ο ΝΗΠΙΑΓΩΓΕΙΟ ΠΑΤΡΑΣ", "lat": 38.266319, "long": 21.753899, "edu_level": "0", "GEIT_ID": 12.0 }, "geometry": { "type": "Point", "coordinates": [ 21.756839, 38.268089 ] } },
{ "type": "Feature", "properties": { "name": "41ο ΝΗΠΙΑΓΩΓΕΙΟ ΠΑΤΡΑΣ", "lat": 38.266319, "long": 21.753899, "edu_level": "0", "GEIT_ID": 12.0 }, "geometry": { "type": "Point", "coordinates": [ 21.756839, 38.268089 ] } },
{ "type": "Feature", "properties": { "name": "57ο ΝΗΠΙΑΓΩΓΕΙΟ ΠΑΤΡΑΣ", "lat": 38.220362, "long": 21.736291, "edu_level": "0", "GEIT_ID": 44.0 }, "geometry": { "type": "Point", "coordinates": [ 21.739231, 38.222132 ] } },
{ "type": "Feature", "properties": { "name": "57ο ΝΗΠΙΑΓΩΓΕΙΟ ΠΑΤΡΑΣ", "lat": 38.220362, "long": 21.736291, "edu_level": "0", "GEIT_ID": 44.0 }, "geometry": { "type": "Point", "coordinates": [ 21.739231, 38.222132 ] } },
{ "type": "Feature", "properties": { "name": "42ο ΝΗΠΙΑΓΩΓΕΙΟ ΠΑΤΡΑΣ", "lat": 38.220363, "long": 21.736345, "edu_level": "0", "GEIT_ID": 44.0 }, "geometry": { "type": "Point", "coordinates": [ 21.739285, 38.222133 ] } },
{ "type": "Feature", "properties": { "name": "42ο ΝΗΠΙΑΓΩΓΕΙΟ ΠΑΤΡΑΣ", "lat": 38.220363, "long": 21.736345, "edu_level": "0", "GEIT_ID": 44.0 }, "geometry": { "type": "Point", "coordinates": [ 21.739285, 38.222133 ] } },
{ "type": "Feature", "properties": { "name": "ΝΗΠΙΑΓΩΓΕΙΟ ΠΑΤΡΑΣ ΕΙΔΙΚΟ", "lat": 38.221928, "long": 21.737492, "edu_level": "0", "GEIT_ID": 48.0 }, "geometry": { "type": "Point", "coordinates": [ 21.740432, 38.223698 ] } },
{ "type": "Feature", "properties": { "name": "ΝΗΠΙΑΓΩΓΕΙΟ ΠΑΤΡΑΣ ΕΙΔΙΚΟ", "lat": 38.221928, "long": 21.737492, "edu_level": "0", "GEIT_ID": 48.0 }, "geometry": { "type": "Point", "coordinates": [ 21.740432, 38.223698 ] } },
{ "type": "Feature", "properties": { "name": "5ο ΝΗΠΙΑΓΩΓΕΙΟ ΠΑΤΡΑΣ", "lat": 38.240516, "long": 21.73801, "edu_level": "0", "GEIT_ID": 29.0 }, "geometry": { "type": "Point", "coordinates": [ 21.74095, 38.242286 ] } },
{ "type": "Feature", "properties": { "name": "5ο ΝΗΠΙΑΓΩΓΕΙΟ ΠΑΤΡΑΣ", "lat": 38.240516, "long": 21.73801, "edu_level": "0", "GEIT_ID": 29.0 }, "geometry": { "type": "Point", "coordinates": [ 21.74095, 38.242286 ] } },
{ "type": "Feature", "properties": { "name": "3ο ΝΗΠΙΑΓΩΓΕΙΟ ΠΑΤΡΑΣ", "lat": 38.235243, "long": 21.727145, "edu_level": "0", "GEIT_ID": 36.0 }, "geometry": { "type": "Point", "coordinates": [ 21.730085, 38.237013 ] } },
{ "type": "Feature", "properties": { "name": "3ο ΝΗΠΙΑΓΩΓΕΙΟ ΠΑΤΡΑΣ", "lat": 38.235243, "long": 21.727145, "edu_level": "0", "GEIT_ID": 36.0 }, "geometry": { "type": "Point", "coordinates": [ 21.730085, 38.237013 ] } },
{ "type": "Feature", "properties": { "name": "40ο ΝΗΠΙΑΓΩΓΕΙΟ ΠΑΤΡΑΣ", "lat": 38.230661, "long": 21.759118, "edu_level": "0", "GEIT_ID": 40.0 }, "geometry": { "type": "Point", "coordinates": [ 21.762058, 38.232431 ] } },
{ "type": "Feature", "properties": { "name": "40ο ΝΗΠΙΑΓΩΓΕΙΟ ΠΑΤΡΑΣ", "lat": 38.230661, "long": 21.759118, "edu_level": "0", "GEIT_ID": 40.0 }, "geometry": { "type": "Point", "coordinates": [ 21.762058, 38.232431 ] } },
{ "type": "Feature", "properties": { "name": "39ο ΝΗΠΙΑΓΩΓΕΙΟ ΠΑΤΡΑΣ", "lat": 38.259478, "long": 21.75018, "edu_level": "0", "GEIT_ID": 16.0 }, "geometry": { "type": "Point", "coordinates": [ 21.75312, 38.261248 ] } },
{ "type": "Feature", "properties": { "name": "39ο ΝΗΠΙΑΓΩΓΕΙΟ ΠΑΤΡΑΣ", "lat": 38.259478, "long": 21.75018, "edu_level": "0", "GEIT_ID": 16.0 }, "geometry": { "type": "Point", "coordinates": [ 21.75312, 38.261248 ] } },
{ "type": "Feature", "properties": { "name": "14ο ΝΗΠΙΑΓΩΓΕΙΟ ΠΑΤΡΑΣ", "lat": 38.217842, "long": 21.725497, "edu_level": "0", "GEIT_ID": 52.0 }, "geometry": { "type": "Point", "coordinates": [ 21.728437, 38.219612 ] } },
{ "type": "Feature", "properties": { "name": "14ο ΝΗΠΙΑΓΩΓΕΙΟ ΠΑΤΡΑΣ", "lat": 38.217842, "long": 21.725497, "edu_level": "0", "GEIT_ID": 52.0 }, "geometry": { "type": "Point", "coordinates": [ 21.728437, 38.219612 ] } },
{ "type": "Feature", "properties": { "name": "21ο ΝΗΠΙΑΓΩΓΕΙΟ ΠΑΤΡΑΣ", "lat": 38.221742, "long": 21.738911, "edu_level": "0", "GEIT_ID": 48.0 }, "geometry": { "type": "Point", "coordinates": [ 21.741851, 38.223512 ] } },
{ "type": "Feature", "properties": { "name": "21ο ΝΗΠΙΑΓΩΓΕΙΟ ΠΑΤΡΑΣ", "lat": 38.221742, "long": 21.738911, "edu_level": "0", "GEIT_ID": 48.0 }, "geometry": { "type": "Point", "coordinates": [ 21.741851, 38.223512 ] } },
{ "type": "Feature", "properties": { "name": "36ο ΝΗΠΙΑΓΩΓΕΙΟ ΠΑΤΡΑΣ", "lat": 38.256574, "long": 21.741681, "edu_level": "0", "GEIT_ID": 9.0 }, "geometry": { "type": "Point", "coordinates": [ 21.744621, 38.258344 ] } },
{ "type": "Feature", "properties": { "name": "36ο ΝΗΠΙΑΓΩΓΕΙΟ ΠΑΤΡΑΣ", "lat": 38.256574, "long": 21.741681, "edu_level": "0", "GEIT_ID": 9.0 }, "geometry": { "type": "Point", "coordinates": [ 21.744621, 38.258344 ] } },
{ "type": "Feature", "properties": { "name": "35ο ΝΗΠΙΑΓΩΓΕΙΟ ΠΑΤΡΑΣ", "lat": 38.248781, "long": 21.744605, "edu_level": "0", "GEIT_ID": null }, "geometry": { "type": "Point", "coordinates": [ 21.747545, 38.250551 ] } },
{ "type": "Feature", "properties": { "name": "8ο ΝΗΠΙΑΓΩΓΕΙΟ ΠΑΤΡΑΣ", "lat": 38.25823, "long": 21.737341, "edu_level": "0", "GEIT_ID": 9.0 }, "geometry": { "type": "Point", "coordinates": [ 21.740281, 38.26 ] } },
{ "type": "Feature", "properties": { "name": "8ο ΝΗΠΙΑΓΩΓΕΙΟ ΠΑΤΡΑΣ", "lat": 38.25823, "long": 21.737341, "edu_level": "0", "GEIT_ID": 9.0 }, "geometry": { "type": "Point", "coordinates": [ 21.740281, 38.26 ] } },
{ "type": "Feature", "properties": { "name": "7ο ΝΗΠΙΑΓΩΓΕΙΟ ΠΑΤΡΑΣ", "lat": 38.236603, "long": 21.733345, "edu_level": "0", "GEIT_ID": 30.0 }, "geometry": { "type": "Point", "coordinates": [ 21.736285, 38.238373 ] } },
{ "type": "Feature", "properties": { "name": "7ο ΝΗΠΙΑΓΩΓΕΙΟ ΠΑΤΡΑΣ", "lat": 38.236603, "long": 21.733345, "edu_level": "0", "GEIT_ID": 30.0 }, "geometry": { "type": "Point", "coordinates": [ 21.736285, 38.238373 ] } },
{ "type": "Feature", "properties": { "name": "69ο ΝΗΠΙΑΓΩΓΕΙΟ ΠΑΤΡΑΣ", "lat": 38.231356, "long": 21.750547, "edu_level": "0", "GEIT_ID": 35.0 }, "geometry": { "type": "Point", "coordinates": [ 21.753487, 38.233126 ] } },
{ "type": "Feature", "properties": { "name": "69ο ΝΗΠΙΑΓΩΓΕΙΟ ΠΑΤΡΑΣ", "lat": 38.231356, "long": 21.750547, "edu_level": "0", "GEIT_ID": 35.0 }, "geometry": { "type": "Point", "coordinates": [ 21.753487, 38.233126 ] } },
{ "type": "Feature", "properties": { "name": "38ο ΝΗΠΙΑΓΩΓΕΙΟ ΠΑΤΡΑΣ", "lat": 38.278549, "long": 21.769422, "edu_level": "0", "GEIT_ID": 6.0 }, "geometry": { "type": "Point", "coordinates": [ 21.772362, 38.280319 ] } },
{ "type": "Feature", "properties": { "name": "38ο ΝΗΠΙΑΓΩΓΕΙΟ ΠΑΤΡΑΣ", "lat": 38.278549, "long": 21.769422, "edu_level": "0", "GEIT_ID": 6.0 }, "geometry": { "type": "Point", "coordinates": [ 21.772362, 38.280319 ] } },
{ "type": "Feature", "properties": { "name": "34ο ΝΗΠΙΑΓΩΓΕΙΟ ΠΑΤΡΑΣ", "lat": 38.269574, "long": 21.74155, "edu_level": "0", "GEIT_ID": 9.0 }, "geometry": { "type": "Point", "coordinates": [ 21.74449, 38.271344 ] } },
{ "type": "Feature", "properties": { "name": "34ο ΝΗΠΙΑΓΩΓΕΙΟ ΠΑΤΡΑΣ", "lat": 38.269574, "long": 21.74155, "edu_level": "0", "GEIT_ID": 9.0 }, "geometry": { "type": "Point", "coordinates": [ 21.74449, 38.271344 ] } },
{ "type": "Feature", "properties": { "name": "29ο ΝΗΠΙΑΓΩΓΕΙΟ ΠΑΤΡΑΣ", "lat": 38.236191, "long": 21.732674, "edu_level": "0", "GEIT_ID": 30.0 }, "geometry": { "type": "Point", "coordinates": [ 21.735614, 38.237961 ] } },
{ "type": "Feature", "properties": { "name": "29ο ΝΗΠΙΑΓΩΓΕΙΟ ΠΑΤΡΑΣ", "lat": 38.236191, "long": 21.732674, "edu_level": "0", "GEIT_ID": 30.0 }, "geometry": { "type": "Point", "coordinates": [ 21.735614, 38.237961 ] } },
{ "type": "Feature", "properties": { "name": "9ο ΝΗΠΙΑΓΩΓΕΙΟ ΠΑΤΡΑΣ", "lat": 38.218357, "long": 21.730105, "edu_level": "0", "GEIT_ID": 52.0 }, "geometry": { "type": "Point", "coordinates": [ 21.733045, 38.220127 ] } },
{ "type": "Feature", "properties": { "name": "9ο ΝΗΠΙΑΓΩΓΕΙΟ ΠΑΤΡΑΣ", "lat": 38.218357, "long": 21.730105, "edu_level": "0", "GEIT_ID": 52.0 }, "geometry": { "type": "Point", "coordinates": [ 21.733045, 38.220127 ] } },
{ "type": "Feature", "properties": { "name": "58ο ΝΗΠΙΑΓΩΓΕΙΟ ΠΑΤΡΑΣ", "lat": 38.213634, "long": 21.727311, "edu_level": "0", "GEIT_ID": 52.0 }, "geometry": { "type": "Point", "coordinates": [ 21.730251, 38.215404 ] } },
{ "type": "Feature", "properties": { "name": "58ο ΝΗΠΙΑΓΩΓΕΙΟ ΠΑΤΡΑΣ", "lat": 38.213634, "long": 21.727311, "edu_level": "0", "GEIT_ID": 52.0 }, "geometry": { "type": "Point", "coordinates": [ 21.730251, 38.215404 ] } },
{ "type": "Feature", "properties": { "name": "4ο ΝΗΠΙΑΓΩΓΕΙΟ ΠΑΤΡΑΣ", "lat": 38.213542, "long": 21.715476, "edu_level": "0", "GEIT_ID": null }, "geometry": { "type": "Point", "coordinates": [ 21.718416, 38.215312 ] } },
{ "type": "Feature", "properties": { "name": "6ο ΝΗΠΙΑΓΩΓΕΙΟ ΠΑΤΡΑΣ", "lat": 38.248466, "long": 21.735138, "edu_level": "0", "GEIT_ID": 22.0 }, "geometry": { "type": "Point", "coordinates": [ 21.738078, 38.250236 ] } },
{ "type": "Feature", "properties": { "name": "6ο ΝΗΠΙΑΓΩΓΕΙΟ ΠΑΤΡΑΣ", "lat": 38.248466, "long": 21.735138, "edu_level": "0", "GEIT_ID": 22.0 }, "geometry": { "type": "Point", "coordinates": [ 21.738078, 38.250236 ] } },
{ "type": "Feature", "properties": { "name": "18ο ΝΗΠΙΑΓΩΓΕΙΟ ΠΑΤΡΑΣ", "lat": 38.256716, "long": 21.741766, "edu_level": "0", "GEIT_ID": 9.0 }, "geometry": { "type": "Point", "coordinates": [ 21.744706, 38.258486 ] } },
{ "type": "Feature", "properties": { "name": "18ο ΝΗΠΙΑΓΩΓΕΙΟ ΠΑΤΡΑΣ", "lat": 38.256716, "long": 21.741766, "edu_level": "0", "GEIT_ID": 9.0 }, "geometry": { "type": "Point", "coordinates": [ 21.744706, 38.258486 ] } },
{ "type": "Feature", "properties": { "name": "27ο ΝΗΠΙΑΓΩΓΕΙΟ ΠΑΤΡΑΣ", "lat": 38.22936, "long": 21.749435, "edu_level": "0", "GEIT_ID": 37.0 }, "geometry": { "type": "Point", "coordinates": [ 21.752375, 38.23113 ] } },
{ "type": "Feature", "properties": { "name": "27ο ΝΗΠΙΑΓΩΓΕΙΟ ΠΑΤΡΑΣ", "lat": 38.22936, "long": 21.749435, "edu_level": "0", "GEIT_ID": 37.0 }, "geometry": { "type": "Point", "coordinates": [ 21.752375, 38.23113 ] } },
{ "type": "Feature", "properties": { "name": "37ο ΝΗΠΙΑΓΩΓΕΙΟ ΠΑΤΡΑΣ", "lat": 38.232638, "long": 21.743159, "edu_level": "0", "GEIT_ID": 39.0 }, "geometry": { "type": "Point", "coordinates": [ 21.746099, 38.234408 ] } },
{ "type": "Feature", "properties": { "name": "37ο ΝΗΠΙΑΓΩΓΕΙΟ ΠΑΤΡΑΣ", "lat": 38.232638, "long": 21.743159, "edu_level": "0", "GEIT_ID": 39.0 }, "geometry": { "type": "Point", "coordinates": [ 21.746099, 38.234408 ] } },
{ "type": "Feature", "properties": { "name": "46ο ΝΗΠΙΑΓΩΓΕΙΟ ΠΑΤΡΑΣ", "lat": 38.237857, "long": 21.727989, "edu_level": "0", "GEIT_ID": 30.0 }, "geometry": { "type": "Point", "coordinates": [ 21.730929, 38.239627 ] } },
{ "type": "Feature", "properties": { "name": "46ο ΝΗΠΙΑΓΩΓΕΙΟ ΠΑΤΡΑΣ", "lat": 38.237857, "long": 21.727989, "edu_level": "0", "GEIT_ID": 30.0 }, "geometry": { "type": "Point", "coordinates": [ 21.730929, 38.239627 ] } },
{ "type": "Feature", "properties": { "name": "23ο ΝΗΠΙΑΓΩΓΕΙΟ ΠΑΤΡΑΣ", "lat": 38.211943, "long": 21.748392, "edu_level": "0", "GEIT_ID": 49.0 }, "geometry": { "type": "Point", "coordinates": [ 21.751332, 38.213713 ] } },
{ "type": "Feature", "properties": { "name": "23ο ΝΗΠΙΑΓΩΓΕΙΟ ΠΑΤΡΑΣ", "lat": 38.211943, "long": 21.748392, "edu_level": "0", "GEIT_ID": 49.0 }, "geometry": { "type": "Point", "coordinates": [ 21.751332, 38.213713 ] } },
{ "type": "Feature", "properties": { "name": "16ο ΝΗΠΙΑΓΩΓΕΙΟ ΠΑΤΡΑΣ", "lat": 38.264917, "long": 21.747116, "edu_level": "0", "GEIT_ID": 9.0 }, "geometry": { "type": "Point", "coordinates": [ 21.750056, 38.266687 ] } },
{ "type": "Feature", "properties": { "name": "16ο ΝΗΠΙΑΓΩΓΕΙΟ ΠΑΤΡΑΣ", "lat": 38.264917, "long": 21.747116, "edu_level": "0", "GEIT_ID": 9.0 }, "geometry": { "type": "Point", "coordinates": [ 21.750056, 38.266687 ] } },
{ "type": "Feature", "properties": { "name": "17ο ΝΗΠΙΑΓΩΓΕΙΟ ΠΑΤΡΑΣ", "lat": 38.245336, "long": 21.739145, "edu_level": "0", "GEIT_ID": 23.0 }, "geometry": { "type": "Point", "coordinates": [ 21.742085, 38.247106 ] } },
{ "type": "Feature", "properties": { "name": "17ο ΝΗΠΙΑΓΩΓΕΙΟ ΠΑΤΡΑΣ", "lat": 38.245336, "long": 21.739145, "edu_level": "0", "GEIT_ID": 23.0 }, "geometry": { "type": "Point", "coordinates": [ 21.742085, 38.247106 ] } },
{ "type": "Feature", "properties": { "name": "19ο ΝΗΠΙΑΓΩΓΕΙΟ ΠΑΤΡΑΣ", "lat": 38.253596, "long": 21.74876, "edu_level": "0", "GEIT_ID": null }, "geometry": { "type": "Point", "coordinates": [ 21.7517, 38.255366 ] } },
{ "type": "Feature", "properties": { "name": "26ο ΝΗΠΙΑΓΩΓΕΙΟ ΠΑΤΡΑΣ", "lat": 38.256574, "long": 21.741681, "edu_level": "0", "GEIT_ID": 9.0 }, "geometry": { "type": "Point", "coordinates": [ 21.744621, 38.258344 ] } },
{ "type": "Feature", "properties": { "name": "26ο ΝΗΠΙΑΓΩΓΕΙΟ ΠΑΤΡΑΣ", "lat": 38.256574, "long": 21.741681, "edu_level": "0", "GEIT_ID": 9.0 }, "geometry": { "type": "Point", "coordinates": [ 21.744621, 38.258344 ] } },
{ "type": "Feature", "properties": { "name": "28ο ΝΗΠΙΑΓΩΓΕΙΟ ΠΑΤΡΑΣ", "lat": 38.221806, "long": 21.761115, "edu_level": "0", "GEIT_ID": null }, "geometry": { "type": "Point", "coordinates": [ 21.764055, 38.223576 ] } },
{ "type": "Feature", "properties": { "name": "25ο ΝΗΠΙΑΓΩΓΕΙΟ ΠΑΤΡΑΣ", "lat": 38.240084, "long": 21.736642, "edu_level": "0", "GEIT_ID": 26.0 }, "geometry": { "type": "Point", "coordinates": [ 21.739582, 38.241854 ] } },
{ "type": "Feature", "properties": { "name": "25ο ΝΗΠΙΑΓΩΓΕΙΟ ΠΑΤΡΑΣ", "lat": 38.240084, "long": 21.736642, "edu_level": "0", "GEIT_ID": 26.0 }, "geometry": { "type": "Point", "coordinates": [ 21.739582, 38.241854 ] } },
{ "type": "Feature", "properties": { "name": "54ο ΝΗΠΙΑΓΩΓΕΙΟ ΠΑΤΡΑΣ", "lat": 38.236101, "long": 21.731785, "edu_level": "0", "GEIT_ID": 30.0 }, "geometry": { "type": "Point", "coordinates": [ 21.734725, 38.237871 ] } },
{ "type": "Feature", "properties": { "name": "54ο ΝΗΠΙΑΓΩΓΕΙΟ ΠΑΤΡΑΣ", "lat": 38.236101, "long": 21.731785, "edu_level": "0", "GEIT_ID": 30.0 }, "geometry": { "type": "Point", "coordinates": [ 21.734725, 38.237871 ] } },
{ "type": "Feature", "properties": { "name": "32ο ΝΗΠΙΑΓΩΓΕΙΟ ΠΑΤΡΑΣ", "lat": 38.228009, "long": 21.741286, "edu_level": "0", "GEIT_ID": 41.0 }, "geometry": { "type": "Point", "coordinates": [ 21.744226, 38.229779 ] } },
{ "type": "Feature", "properties": { "name": "32ο ΝΗΠΙΑΓΩΓΕΙΟ ΠΑΤΡΑΣ", "lat": 38.228009, "long": 21.741286, "edu_level": "0", "GEIT_ID": 41.0 }, "geometry": { "type": "Point", "coordinates": [ 21.744226, 38.229779 ] } },
{ "type": "Feature", "properties": { "name": "22ο ΝΗΠΙΑΓΩΓΕΙΟ ΠΑΤΡΑΣ", "lat": 38.231356, "long": 21.750547, "edu_level": "0", "GEIT_ID": 35.0 }, "geometry": { "type": "Point", "coordinates": [ 21.753487, 38.233126 ] } },
{ "type": "Feature", "properties": { "name": "22ο ΝΗΠΙΑΓΩΓΕΙΟ ΠΑΤΡΑΣ", "lat": 38.231356, "long": 21.750547, "edu_level": "0", "GEIT_ID": 35.0 }, "geometry": { "type": "Point", "coordinates": [ 21.753487, 38.233126 ] } },
{ "type": "Feature", "properties": { "name": "43ο ΝΗΠΙΑΓΩΓΕΙΟ ΠΑΤΡΑΣ", "lat": 38.27042, "long": 21.762851, "edu_level": "0", "GEIT_ID": 15.0 }, "geometry": { "type": "Point", "coordinates": [ 21.765791, 38.27219 ] } },
{ "type": "Feature", "properties": { "name": "43ο ΝΗΠΙΑΓΩΓΕΙΟ ΠΑΤΡΑΣ", "lat": 38.27042, "long": 21.762851, "edu_level": "0", "GEIT_ID": 15.0 }, "geometry": { "type": "Point", "coordinates": [ 21.765791, 38.27219 ] } },
{ "type": "Feature", "properties": { "name": "45ο ΝΗΠΙΑΓΩΓΕΙΟ ΠΑΤΡΑΣ", "lat": 38.229402, "long": 21.728282, "edu_level": "0", "GEIT_ID": 42.0 }, "geometry": { "type": "Point", "coordinates": [ 21.731222, 38.231172 ] } },
{ "type": "Feature", "properties": { "name": "45ο ΝΗΠΙΑΓΩΓΕΙΟ ΠΑΤΡΑΣ", "lat": 38.229402, "long": 21.728282, "edu_level": "0", "GEIT_ID": 42.0 }, "geometry": { "type": "Point", "coordinates": [ 21.731222, 38.231172 ] } },
{ "type": "Feature", "properties": { "name": "47ο ΝΗΠΙΑΓΩΓΕΙΟ ΠΑΤΡΑΣ", "lat": 38.261767, "long": 21.743897, "edu_level": "0", "GEIT_ID": 9.0 }, "geometry": { "type": "Point", "coordinates": [ 21.746837, 38.263537 ] } },
{ "type": "Feature", "properties": { "name": "47ο ΝΗΠΙΑΓΩΓΕΙΟ ΠΑΤΡΑΣ", "lat": 38.261767, "long": 21.743897, "edu_level": "0", "GEIT_ID": 9.0 }, "geometry": { "type": "Point", "coordinates": [ 21.746837, 38.263537 ] } },
{ "type": "Feature", "properties": { "name": "49ο ΝΗΠΙΑΓΩΓΕΙΟ ΠΑΤΡΑΣ", "lat": 38.279856, "long": 21.763903, "edu_level": "0", "GEIT_ID": 4.0 }, "geometry": { "type": "Point", "coordinates": [ 21.766843, 38.281626 ] } },
{ "type": "Feature", "properties": { "name": "49ο ΝΗΠΙΑΓΩΓΕΙΟ ΠΑΤΡΑΣ", "lat": 38.279856, "long": 21.763903, "edu_level": "0", "GEIT_ID": 4.0 }, "geometry": { "type": "Point", "coordinates": [ 21.766843, 38.281626 ] } },
{ "type": "Feature", "properties": { "name": "48ο ΝΗΠΙΑΓΩΓΕΙΟ ΠΑΤΡΑΣ", "lat": 38.275184, "long": 21.76286, "edu_level": "0", "GEIT_ID": 8.0 }, "geometry": { "type": "Point", "coordinates": [ 21.7658, 38.276954 ] } },
{ "type": "Feature", "properties": { "name": "48ο ΝΗΠΙΑΓΩΓΕΙΟ ΠΑΤΡΑΣ", "lat": 38.275184, "long": 21.76286, "edu_level": "0", "GEIT_ID": 8.0 }, "geometry": { "type": "Point", "coordinates": [ 21.7658, 38.276954 ] } },
{ "type": "Feature", "properties": { "name": "56ο ΝΗΠΙΑΓΩΓΕΙΟ ΠΑΤΡΑΣ", "lat": 38.254683, "long": 21.742079, "edu_level": "0", "GEIT_ID": 9.0 }, "geometry": { "type": "Point", "coordinates": [ 21.745019, 38.256453 ] } },
{ "type": "Feature", "properties": { "name": "56ο ΝΗΠΙΑΓΩΓΕΙΟ ΠΑΤΡΑΣ", "lat": 38.254683, "long": 21.742079, "edu_level": "0", "GEIT_ID": 9.0 }, "geometry": { "type": "Point", "coordinates": [ 21.745019, 38.256453 ] } },
{ "type": "Feature", "properties": { "name": "55ο ΝΗΠΙΑΓΩΓΕΙΟ ΠΑΤΡΑΣ", "lat": 38.22342, "long": 21.741467, "edu_level": "0", "GEIT_ID": 48.0 }, "geometry": { "type": "Point", "coordinates": [ 21.744407, 38.22519 ] } },
{ "type": "Feature", "properties": { "name": "55ο ΝΗΠΙΑΓΩΓΕΙΟ ΠΑΤΡΑΣ", "lat": 38.22342, "long": 21.741467, "edu_level": "0", "GEIT_ID": 48.0 }, "geometry": { "type": "Point", "coordinates": [ 21.744407, 38.22519 ] } },
{ "type": "Feature", "properties": { "name": "1ο ΝΗΠΙΑΓΩΓΕΙΟ ΠΑΤΡΑΣ", "lat": 38.231536, "long": 21.733223, "edu_level": "0", "GEIT_ID": 36.0 }, "geometry": { "type": "Point", "coordinates": [ 21.736163, 38.233306 ] } },
{ "type": "Feature", "properties": { "name": "1ο ΝΗΠΙΑΓΩΓΕΙΟ ΠΑΤΡΑΣ", "lat": 38.231536, "long": 21.733223, "edu_level": "0", "GEIT_ID": 36.0 }, "geometry": { "type": "Point", "coordinates": [ 21.736163, 38.233306 ] } },
{ "type": "Feature", "properties": { "name": "2ο ΝΗΠΙΑΓΩΓΕΙΟ ΠΑΤΡΑΣ", "lat": 38.23338, "long": 21.74284, "edu_level": "0", "GEIT_ID": 39.0 }, "geometry": { "type": "Point", "coordinates": [ 21.74578, 38.23515 ] } },
{ "type": "Feature", "properties": { "name": "2ο ΝΗΠΙΑΓΩΓΕΙΟ ΠΑΤΡΑΣ", "lat": 38.23338, "long": 21.74284, "edu_level": "0", "GEIT_ID": 39.0 }, "geometry": { "type": "Point", "coordinates": [ 21.74578, 38.23515 ] } },
{ "type": "Feature", "properties": { "name": "10ο ΝΗΠΙΑΓΩΓΕΙΟ ΠΑΤΡΑΣ", "lat": 38.237879, "long": 21.740507, "edu_level": "0", "GEIT_ID": 29.0 }, "geometry": { "type": "Point", "coordinates": [ 21.743447, 38.239649 ] } },
{ "type": "Feature", "properties": { "name": "10ο ΝΗΠΙΑΓΩΓΕΙΟ ΠΑΤΡΑΣ", "lat": 38.237879, "long": 21.740507, "edu_level": "0", "GEIT_ID": 29.0 }, "geometry": { "type": "Point", "coordinates": [ 21.743447, 38.239649 ] } },
{ "type": "Feature", "properties": { "name": "12ο ΝΗΠΙΑΓΩΓΕΙΟ ΠΑΤΡΑΣ", "lat": 38.237879, "long": 21.740507, "edu_level": "0", "GEIT_ID": 29.0 }, "geometry": { "type": "Point", "coordinates": [ 21.743447, 38.239649 ] } },
{ "type": "Feature", "properties": { "name": "12ο ΝΗΠΙΑΓΩΓΕΙΟ ΠΑΤΡΑΣ", "lat": 38.237879, "long": 21.740507, "edu_level": "0", "GEIT_ID": 29.0 }, "geometry": { "type": "Point", "coordinates": [ 21.743447, 38.239649 ] } },
{ "type": "Feature", "properties": { "name": "13ο ΝΗΠΙΑΓΩΓΕΙΟ ΠΑΤΡΑΣ", "lat": 38.22618, "long": 21.733448, "edu_level": "0", "GEIT_ID": 44.0 }, "geometry": { "type": "Point", "coordinates": [ 21.736388, 38.22795 ] } },
{ "type": "Feature", "properties": { "name": "13ο ΝΗΠΙΑΓΩΓΕΙΟ ΠΑΤΡΑΣ", "lat": 38.22618, "long": 21.733448, "edu_level": "0", "GEIT_ID": 44.0 }, "geometry": { "type": "Point", "coordinates": [ 21.736388, 38.22795 ] } },
{ "type": "Feature", "properties": { "name": "20ο ΝΗΠΙΑΓΩΓΕΙΟ ΠΑΤΡΑΣ", "lat": 38.242452, "long": 21.743707, "edu_level": "0", "GEIT_ID": 28.0 }, "geometry": { "type": "Point", "coordinates": [ 21.746647, 38.244222 ] } },
{ "type": "Feature", "properties": { "name": "20ο ΝΗΠΙΑΓΩΓΕΙΟ ΠΑΤΡΑΣ", "lat": 38.242452, "long": 21.743707, "edu_level": "0", "GEIT_ID": 28.0 }, "geometry": { "type": "Point", "coordinates": [ 21.746647, 38.244222 ] } },
{ "type": "Feature", "properties": { "name": "60ο ΝΗΠΙΑΓΩΓΕΙΟ ΠΑΤΡΑΣ", "lat": 38.22941, "long": 21.728282, "edu_level": "0", "GEIT_ID": 42.0 }, "geometry": { "type": "Point", "coordinates": [ 21.731222, 38.23118 ] } },
{ "type": "Feature", "properties": { "name": "60ο ΝΗΠΙΑΓΩΓΕΙΟ ΠΑΤΡΑΣ", "lat": 38.22941, "long": 21.728282, "edu_level": "0", "GEIT_ID": 42.0 }, "geometry": { "type": "Point", "coordinates": [ 21.731222, 38.23118 ] } },
{ "type": "Feature", "properties": { "name": "71ο ΝΗΠΙΑΓΩΓΕΙΟ ΠΑΤΡΑΣ", "lat": 38.228972, "long": 21.751566, "edu_level": "0", "GEIT_ID": 45.0 }, "geometry": { "type": "Point", "coordinates": [ 21.754506, 38.230742 ] } },
{ "type": "Feature", "properties": { "name": "71ο ΝΗΠΙΑΓΩΓΕΙΟ ΠΑΤΡΑΣ", "lat": 38.228972, "long": 21.751566, "edu_level": "0", "GEIT_ID": 45.0 }, "geometry": { "type": "Point", "coordinates": [ 21.754506, 38.230742 ] } },
{ "type": "Feature", "properties": { "name": "31ο ΝΗΠΙΑΓΩΓΕΙΟ ΠΑΤΡΑΣ", "lat": 38.224123, "long": 21.757638, "edu_level": "0", "GEIT_ID": 45.0 }, "geometry": { "type": "Point", "coordinates": [ 21.760578, 38.225893 ] } },
{ "type": "Feature", "properties": { "name": "31ο ΝΗΠΙΑΓΩΓΕΙΟ ΠΑΤΡΑΣ", "lat": 38.224123, "long": 21.757638, "edu_level": "0", "GEIT_ID": 45.0 }, "geometry": { "type": "Point", "coordinates": [ 21.760578, 38.225893 ] } },
{ "type": "Feature", "properties": { "name": "61ο ΝΗΠΙΑΓΩΓΕΙΟ ΠΑΤΡΑΣ", "lat": 38.226137, "long": 21.73345, "edu_level": "0", "GEIT_ID": 44.0 }, "geometry": { "type": "Point", "coordinates": [ 21.73639, 38.227907 ] } },
{ "type": "Feature", "properties": { "name": "61ο ΝΗΠΙΑΓΩΓΕΙΟ ΠΑΤΡΑΣ", "lat": 38.226137, "long": 21.73345, "edu_level": "0", "GEIT_ID": 44.0 }, "geometry": { "type": "Point", "coordinates": [ 21.73639, 38.227907 ] } },
{ "type": "Feature", "properties": { "name": "67ο ΝΗΠΙΑΓΩΓΕΙΟ ΠΑΤΡΑΣ", "lat": 38.235099, "long": 21.744306, "edu_level": "0", "GEIT_ID": 37.0 }, "geometry": { "type": "Point", "coordinates": [ 21.747246, 38.236869 ] } },
{ "type": "Feature", "properties": { "name": "67ο ΝΗΠΙΑΓΩΓΕΙΟ ΠΑΤΡΑΣ", "lat": 38.235099, "long": 21.744306, "edu_level": "0", "GEIT_ID": 37.0 }, "geometry": { "type": "Point", "coordinates": [ 21.747246, 38.236869 ] } },
{ "type": "Feature", "properties": { "name": "62ο ΝΗΠΙΑΓΩΓΕΙΟ ΠΑΤΡΑΣ", "lat": 38.221144, "long": 21.721721, "edu_level": "0", "GEIT_ID": 51.0 }, "geometry": { "type": "Point", "coordinates": [ 21.724661, 38.222914 ] } },
{ "type": "Feature", "properties": { "name": "62ο ΝΗΠΙΑΓΩΓΕΙΟ ΠΑΤΡΑΣ", "lat": 38.221144, "long": 21.721721, "edu_level": "0", "GEIT_ID": 51.0 }, "geometry": { "type": "Point", "coordinates": [ 21.724661, 38.222914 ] } },
{ "type": "Feature", "properties": { "name": "68ο ΝΗΠΙΑΓΩΓΕΙΟ ΠΑΤΡΑΣ", "lat": 38.261767, "long": 21.743897, "edu_level": "0", "GEIT_ID": 9.0 }, "geometry": { "type": "Point", "coordinates": [ 21.746837, 38.263537 ] } },
{ "type": "Feature", "properties": { "name": "68ο ΝΗΠΙΑΓΩΓΕΙΟ ΠΑΤΡΑΣ", "lat": 38.261767, "long": 21.743897, "edu_level": "0", "GEIT_ID": 9.0 }, "geometry": { "type": "Point", "coordinates": [ 21.746837, 38.263537 ] } },
{ "type": "Feature", "properties": { "name": "15ο ΝΗΠΙΑΓΩΓΕΙΟ ΠΑΤΡΑΣ", "lat": 38.247533, "long": 21.735325, "edu_level": "0", "GEIT_ID": 22.0 }, "geometry": { "type": "Point", "coordinates": [ 21.738265, 38.249303 ] } },
{ "type": "Feature", "properties": { "name": "15ο ΝΗΠΙΑΓΩΓΕΙΟ ΠΑΤΡΑΣ", "lat": 38.247533, "long": 21.735325, "edu_level": "0", "GEIT_ID": 22.0 }, "geometry": { "type": "Point", "coordinates": [ 21.738265, 38.249303 ] } },
{ "type": "Feature", "properties": { "name": "66ο ΝΗΠΙΑΓΩΓΕΙΟ ΠΑΤΡΑΣ", "lat": 38.227905, "long": 21.740279, "edu_level": "0", "GEIT_ID": 41.0 }, "geometry": { "type": "Point", "coordinates": [ 21.743219, 38.229675 ] } },
{ "type": "Feature", "properties": { "name": "66ο ΝΗΠΙΑΓΩΓΕΙΟ ΠΑΤΡΑΣ", "lat": 38.227905, "long": 21.740279, "edu_level": "0", "GEIT_ID": 41.0 }, "geometry": { "type": "Point", "coordinates": [ 21.743219, 38.229675 ] } },
{ "type": "Feature", "properties": { "name": "33ο ΝΗΠΙΑΓΩΓΕΙΟ ΠΑΤΡΑΣ", "lat": 38.238282, "long": 21.725438, "edu_level": "0", "GEIT_ID": 27.0 }, "geometry": { "type": "Point", "coordinates": [ 21.728378, 38.240052 ] } },
{ "type": "Feature", "properties": { "name": "33ο ΝΗΠΙΑΓΩΓΕΙΟ ΠΑΤΡΑΣ", "lat": 38.238282, "long": 21.725438, "edu_level": "0", "GEIT_ID": 27.0 }, "geometry": { "type": "Point", "coordinates": [ 21.728378, 38.240052 ] } },
{ "type": "Feature", "properties": { "name": "30ο ΝΗΠΙΑΓΩΓΕΙΟ ΠΑΤΡΑΣ", "lat": 38.235123, "long": 21.744274, "edu_level": "0", "GEIT_ID": 37.0 }, "geometry": { "type": "Point", "coordinates": [ 21.747214, 38.236893 ] } },
{ "type": "Feature", "properties": { "name": "30ο ΝΗΠΙΑΓΩΓΕΙΟ ΠΑΤΡΑΣ", "lat": 38.235123, "long": 21.744274, "edu_level": "0", "GEIT_ID": 37.0 }, "geometry": { "type": "Point", "coordinates": [ 21.747214, 38.236893 ] } }
]
}
